University Name,City,State,Zip,URL,Bachelors,Masters,DNP,Post-Grad
Abilene Christian University,Abilene,TX,zip,"http://www.acu.edu/undergraduate/academics/school-of-nursing.html",1,0,1,0
Adams State University,Alamosa,CO,zip,"http://www.adams.edu/academics/nursing/",1,0,0,0
Adelphi University,Garden City,NY,zip,"http://nursing.adelphi.edu",1,1,1,0
AdventHealth University,Orlando,FL,zip,"http://www.adu.edu/academics/bs-nursing",1,1,0,0
Alfred State College SUNY College of Technology,Alfred,NY,zip,"http://alfredstate.edu",1,0,0,0
Allen College,Waterloo,IA,zip,"http://www.allencollege.edu",1,1,1,1
Alma College,Alma,MI,zip,"http://www.alma.edu/academics/nursing/index.php",1,0,0,0
Alvernia University,Reading,PA,zip,"http://www.alvernia.edu",1,1,1,0
Alverno College,Milwaukee,WI,zip,"http://www.alverno.edu",1,1,1,1
American College of Education,Indianapolis,IN,zip,"https://www.ace.edu/program/master-of-science-in-nursing",1,1,0,0
American International College,Springfield,MA,zip,"http://www.aic.edu",1,1,0,0
American Public University System,Charles Town,WV,zip,"http://www.apu.apus.edu/academic/programs/degree/1440/bachelor-of-science-in-nursing",1,1,0,0
American University of Beirut,New York,NY,zip,"http://www.aub.edu.lb/~webson/",1,1,0,0
American University of Health Sciences,Signal Hill,CA,zip,"http://www.auhs.edu/bsn_information.html",1,1,0,1
Anderson University - IN,Anderson,IN,zip,"http://www.anderson.edu",1,0,0,0
Anderson University - SC,Anderson,SC,zip,"http://www.andersonuniversity.edu/son.aspx?id=6207",1,1,1,1
Angeles College,Los Angeles,CA,zip,"http://www.angelescollege.edu/academics/bsn-completion-rn-to-bsn-bachelor-of-science-in-nursing/",1,0,0,0
Angelo State University,San Angelo,TX,zip,"http://www.angelo.edu/dept/nursing",1,1,0,1
Appalachian State University,Boone,NC,zip,"http://nursing.appstate.edu",1,1,0,0
Arizona College of Nursing,Tempe,AZ,zip,"http://www.arizonacollege.edu/nursing/bachelor-of-science-in-nursing/",1,0,0,0
Arizona State University,Phoenix,AZ,zip,"https://nursingandhealth.asu.edu/",1,1,1,0
Ashland University,Mansfield,OH,zip,"http://www.ashland.edu/nursing/",1,0,1,0
Aspen University,Phoenix,AZ,zip,"http://www.aspen.edu/",1,1,1,0
Atenas College,Manati,PR,zip,"http://atenascollege.edu/ciencias-de-enfermeria/",1,0,0,0
Atlanta VA Health Care System,Decatur,GA,zip,"http://www.atlanta.va.gov",0,0,0,0
Auburn University,Auburn University,AL,zip,"http://www.auburn.edu/academic/nursing/",1,1,1,1
Auburn University at Montgomery,Montgomery,AL,zip,"http://www.aum.edu",1,1,1,0
Augsburg University,Minneapolis,MN,zip,"http://www.augsburg.edu",1,1,1,0
Augusta University,Augusta,GA,zip,"http://www.augusta.edu/nursing/",1,1,1,1
Augustana University,Sioux Falls,SD,zip,"http://www.augie.edu",1,0,0,0
Aultman College of Nursing and Health Sciences,Canton,OH,zip,"https://www.aultmancollege.edu/",1,0,0,0
Aurora University,Aurora,IL,zip,"http://www.aurora.edu/nursing/",1,0,0,0
Austin Peay State University,Clarksville,TN,zip,"http://www.apus.edu/nursing",1,1,0,1
Averett University,Danville,VA,zip,"http://www.averett.edu/academics/undergrad/nursing/index.php",1,1,0,1
Avila University,Kansas City,MO,zip,"http://www.avila.edu/",1,0,0,0
Azusa Pacific University,Azusa,CA,zip,"http://www.apu.edu",1,1,1,1
Baker College,Owosso,MI,zip,"http://www.baker.edu/programs/detail/nursing-bachelor-of-nursing-online/",1,1,0,0
Baker University,Topeka,KS,zip,"http://www.bakeru.edu",1,1,0,0
Baldwin Wallace University,Berea,OH,zip,"http://www.bw.edu/academics/nursing/",1,0,0,0
Ball State University,Muncie,IN,zip,"http://www.bsu.edu/nursing",1,1,1,1
Baptist Health Sciences University,Memphis,TN,zip,"https://www.bchs.edu/nursing",1,0,1,0
Barnes-Jewish College,St. Louis,MO,zip,"http://www.barnesjewishcollege.edu",1,1,1,1
Barry University,Miami Shores,FL,zip,"http://www.barry.edu/nursing",1,1,1,1
Barton College,Wilson,NC,zip,"https://www.barton.edu/academics/programs/nursing/",1,1,0,0
Bay Path University,East Longmeadow,MA,zip,"http://awc.baypath.edu",1,0,1,0
Bay State College,Boston,MA,zip,"https://www.baystate.edu/programs/bachelors/nursing-rn-to-bsn",1,0,0,0
Baylor University,Dallas,TX,zip,"http://www.baylor.edu/nursing/",1,0,1,0
Beckfield College,Florence,KY,zip,"http://www.beckfield.edu",1,0,0,0
Belhaven University,Jackson,MS,zip,"http://www.belhaven.edu/nursing",1,0,0,0
Bellarmine University,Louisville,KY,zip,"http://www.bellarmine.edu/lansing/nursing",1,1,1,1
Bellevue College,Bellevue,WA,zip,"http://bellevuecollege.edu/health/nursing/",1,0,0,0
Bellevue University,Bellevue,NE,zip,"http://www.bellevue.edu/degrees/bachelor/nursing-bs/",1,0,0,0
Bellin College,Green Bay,WI,zip,"http://www.bellincollege.edu",1,1,0,1
Belmont University,Nashville,TN,zip,"http://www.belmont.edu/nursing",1,1,1,1
Belmont University,Nashville,TN,zip,"http://www.belmont.edu/nursing",0,0,0,0
Belmont University/Trevecca Nazarene University Consortium,Nashville,TN,zip,"http://	www.belmont.edu/nursing/index.html",1,0,0,0
Bemidji State University,Bemidji,MN,zip,"http://www.bemidjistate.edu",1,0,0,0
Benedictine College,Achison,KS,zip,"http://www.benedictine.edu",1,0,0,0
Benedictine University,Lisle,IL,zip,"http://www.ben.edu",1,1,0,0
Berea College,Berea,KY,zip,"http://www.berea.edu/nursing",1,0,0,0
Berry College,Mount Berry,GA,zip,"http://www.berry.edu/academics/nursing/",1,0,0,0
Bethany Lutheran College,Mankato,MN,zip,"http://www.blc.edu/nursing-major",1,0,0,0
Bethel College,North Newton,KS,zip,"http://www.bethelks.edu",1,0,0,0
Bethel University-Minnesota,Saint Paul,MN,zip,"http://www.bethel.edu",1,1,1,0
Bethel University-Tennessee,McKenzie,TN,zip,"http://www.bethelu.edu",1,0,0,0
Binghamton University,Johnson City,NY,zip,"http://www.binghamton.edu/dson/",1,1,1,1
Biola University,La Mirada,CA,zip,"http://www.biola.edu",1,0,0,0
Birmingham VA Medical Center,Quincy,IL,zip,"http://www.brcn.edu",1,1,0,0
Bloomfield College,Bloomfield,NJ,zip,"http://www.bloomfield.edu",1,0,0,0
Bloomsburg University of Pennsylvania,Bloomsburg,PA,zip,"http://www.bloomu.edu",1,1,1,0
Bluefield State College,Bluefield,WV,zip,"http://www.bluefieldstate.edu",1,0,0,0
Bluefield University,Bluefield,VA,zip,"http://www.bluefield.edu/academics",1,1,0,1
Bluffton University,Bluffton,OH,zip,"https: / /www.bluffton.edu/nursing/index.aspx",1,0,0,0
Bob Jones University,Greenville,SC,zip,"http://www.bju.edu",1,0,0,0
Boise State University,Boise,ID,zip,"http://hs.boisestate.edu/nursing",1,1,1,0
Boise VA Medical Center,Richmond,VA,zip,"http://www.bsmcon.edu",1,0,0,0
Boston College,Chestnut Hill,MA,zip,"http://www.bc.edu/cson",1,1,1,0
Bowling Green State University,Bowling Green,OH,zip,"https://www.bgsu.edu/rntobsn",1,0,0,0
Bowling Green State University,Bowling Green,OH,zip,"https://www.bgsu.edu/rntobsn",0,0,0,0
Bradley University,Peoria,IL,zip,"http://www.bradley.edu/academic/departments/nursing/",1,1,1,1
Brenau University,Gainesville,GA,zip,"http://www.brenau.edu",1,1,1,1
Briar Cliff University,Sioux City,IA,zip,"http://www.briarcliff.edu",1,1,1,1
Brigham Young University,Provo,UT,zip,"http://www.byu.edu",1,1,0,0
Brigham Young University-Idaho,Rexburg,ID,zip,"http://www.byui.edu",1,0,0,0
Brookline College,Phoenix,AZ,zip,"http://brooklinecollege.edu/college-programs/nursing/",1,0,0,0
Broward College,Mirimar,FL,zip,"http://www.broward.edu/bsn",1,0,0,0
Bryant & Stratton College-Online Education,Orchard Park,NY,zip,"https://www.bryantstratton.edu/degrees/bachelor-degrees",1,0,0,0
Bryant & Stratton College-Parma,Parma,OH,zip,"http://www.bryantstratton.edu",1,0,0,0
Bryant & Stratton College-Wauwatosa,Wauwatosa,WI,zip,"http://www.bryantstratton.edu",1,0,0,0
Bushnell University,Eugene,OR,zip,"https://www.bushnell.edu/academics/undergraduate/majors-minors/absn/",1,1,0,0
Cabarrus College of Health Sciences,Concord,NC,zip,"http://www.cabarruscollege.edu",1,1,0,0
Caldwell University,Caldwell,NJ,zip,"https://www.caldwell.edu/academics/academic-departments/nursing",1,0,0,0
California Baptist University,Riverside,CA,zip,"http://www.calbaptist.edu",1,1,1,1
California Southern University,Chandler,AZ,zip,"http://www.calsouthern.edu/nursing",1,1,0,0
"California State University, Bakersfield",Bakersfield,CA,zip,"http://www.csub.edu/nursing",1,1,0,0
"California State University, Channel Islands",Camarillo,CA,zip,"http://nursing.csuci.edu",1,1,0,1
"California State University, Chico",Chico,CA,zip,"http://www.csuchico.edu/nurs",1,1,0,0
"California State University, Dominguez Hills",Carson,CA,zip,"http://www.csudh.edu",1,1,0,1
"California State University, East Bay",Hayward,CA,zip,"http://www.csueastbay.edu/nursing/",1,1,0,0
"California State University, Fresno",Fresno,CA,zip,"http://www.csufresno.edu/nursing",1,1,1,1
"California State University, Fullerton",Fullerton,CA,zip,"http://nursing.fullerton.edu",1,1,0,0
"California State University, Fullerton",Fullerton,CA,zip,"http://nursing.fullerton.edu",0,0,0,0
"California State University, Long Beach",Long Beach,CA,zip,"http://www.csulb.edu/colleges/chhs/departments/nursing/",1,1,0,1
"California State University, Long Beach",Long Beach,CA,zip,"http://www.csulb.edu/colleges/chhs/departments/nursing/",0,0,0,0
"California State University, Los Angeles",Los Angeles,CA,zip,"http://www.calstatela.edu/academic/hhs/nursing/",1,1,0,1
"California State University, Los Angeles",Los Angeles,CA,zip,"http://www.calstatela.edu/academic/hhs/nursing/",0,0,0,0
"California State University, Monterey Bay",Seaside,CA,zip,"http://	nursing.csumb.edu",1,0,0,0
"California State University, Northridge",Northridge,CA,zip,"http://www.csun.edu",1,0,0,0
"California State University, Sacramento",Sacramento,CA,zip,"http://www.hhs.csus.edu/NRS",1,1,0,0
"California State University, San Bernardino",San Bernardino,CA,zip,"http://www.nursing.csusb.edu",1,1,0,0
"California State University, San Marcos",San Marcos,CA,zip,"http://www.csusm.edu/nursing",1,1,0,1
"California State University, Stanislaus",Turlock,CA,zip,"http://www.csustan.edu/Nursing/",1,1,0,0
Calvin University,Grand Rapids,MI,zip,"http://www.calvin.edu",1,0,0,0
Campbell University,Lillington,NC,zip,"https://cphs.campbell.edu/academic-programs/nursing/",1,0,0,0
Capella University,Minneapolis,MN,zip,"http://www.capella.edu",1,1,1,0
Capital University,Columbus,OH,zip,"http://www.capital.edu",1,1,0,0
Cardinal Stritch University,Milwaukee,WI,zip,"http://www.stritch.edu",1,0,0,0
Carlow University,Pittsburgh,PA,zip,"http://www.carlow.edu",1,1,1,1
Carolinas College of Health Sciences,Charlotte,NC,zip,"https://atriumhealth.org/education/carolinas-college-of-health-sciences/academic-programs/RN-to-BSN-Nursing",1,0,0,0
Carroll College-Montana,Helena,MT,zip,"http://www.carroll.edu",1,0,0,0
Carroll University,Waukesha,WI,zip,"http://www.carrollu.edu",1,1,0,0
Carson-Newman University,Jefferson City,TN,zip,"http://www.cn.edu",1,1,0,0
Carthage College,Kenosha,WI,zip,"http://www.carthage.edu/nursing",1,0,0,0
Case Western Reserve University,Cleveland,OH,zip,"http://fpb.case.edu",1,1,1,1
Castleton University,Castleton,VT,zip,"http://www.castleton.edu/nursing2/index.htm",1,0,0,0
Catawba College,Salisbury,NC,zip,"http://www.catawba.edu/academics/programs/undergraduate/nursing/",1,0,0,0
"Catholic University of America, The",Washington,DC,zip,"http://nursing.cua.edu",1,1,1,1
Cedar Crest College,Allentown,PA,zip,"http://www.cedarcrest.edu",0,1,1,0
Cedarville University,Cedarville,OH,zip,"http://www.cedarville.edu",1,1,0,0
Central Connecticut State University,New Britain,CT,zip,"http://www.ccsu.edu",1,1,0,0
Central Methodist University,Fayette,MO,zip,"http://www.centralmethodist.edu",1,1,0,0
Central Michigan University,Downers Grove,IL,zip,"http://www.chamberlain.edu",1,1,1,1
Chaminade University of Honolulu,Honolulu,HI,zip,"http://chaminade.edu/academic-program/nursing/",1,0,0,0
Charles R. Drew University of Medicine and Science,Los Angeles,CA,zip,"http://www.cdrewu.edu",1,1,0,1
Charter Oak State College,New Britain,CT,zip,"https://www.charteroak.edu/rn-to-bsn",1,0,0,0
Chatham University,Pittsburgh,PA,zip,"http://www.chatham.edu/academics/colleges/ccps/rn-to-bsn/",1,1,1,0
Children's Health,Dallas,TX,zip,"http://www.childrens.com/for-healthcare-professionals/education-training/residency-programs/nurse-residency",0,0,0,0
Children's Hospital Colorado,Aurora,CO,zip,"http://www.childrenscolorado.org/about/careers/nursing/residency-program",0,0,0,0
Children's Hospital of Philadelphia,Cincinnati,OH,zip,"http://www.thechristcollege.edu/academics",1,0,0,0
Christian Brothers University,Memphis,TN,zip,"http://www.cbu.edu/nursing",1,0,0,0
Cincinnati VA Medical Center,Charleston,SC,zip,"http://www.citadel.edu/root/",1,0,0,0
Claflin University,Orangeburg,SC,zip,"http://www.claflin.edu/academics-research/schools-departments/school-of-natural-sciences-and-mathematics/department-of-nursing---rn-to-bsn-in-nursing",1,0,0,0
Clarke University,Dubuque,IA,zip,"http://www.clarke.edu",1,0,1,0
Clayton State University,Morrow,GA,zip,"http://www.clayton.edu/nursing",1,1,0,0
Clement J. Zablocki VA Medical Center,Milwaukee,WI,zip,"http://www.milwaukee.va.gov/",0,0,0,0
Clemson University,Clemson,SC,zip,"https://www.clemson.edu/cbshs/departments/nursing/",1,1,1,0
Cleveland State University,Cleveland,OH,zip,"http://www.csuohio.edu/academic/majors/nursing.html",1,1,1,0
CNI College,Santa Ana,CA,zip,"http://www.cnicollege.edu",1,0,0,0
Coe College,Cedar Rapids,IA,zip,"http://www.coe.edu",1,0,0,0
Colby-Sawyer College,New London,NH,zip,"http://www.colby-sawyer.edu",1,1,0,0
Colegio Universitario de San Juan,San Juan,PR,zip,"http://www.cunisanjuan.edu/",1,0,0,0
College of Mount Saint Vincent,Bronx,NY,zip,"http://www.cmsv.edu/",1,1,0,1
"College of New Jersey, The",Ewing,NJ,zip,"http://www.TCNJ.edu",1,1,0,1
College of Saint Benedict,St. Joseph,MN,zip,"http://www.csbsju.edu/nursing",0,0,0,0
College of Saint Benedict/Saint John's University,St. Joseph,MN,zip,"http://www.csbsju.edu/nursing",1,0,0,0
"College of St. Scholastica, The",Duluth,MN,zip,"http://www.css.edu/academics/school-of-nursing.html",1,0,1,1
College of the Ozarks,Point Lookout,MO,zip,"http://www.cofo.edu/nursing",1,0,0,0
Colorado Christian University,Lakewood,CO,zip,"http://www.ccu.edu/academics/nursing/",1,1,1,0
Colorado Mesa University,Grand Junction,CO,zip,"http://www.coloradomesa.edu/healthsciences/bsn.html",1,1,1,0
Colorado Technical University,Colorado Springs,CO,zip,"http://www.coloradotech.edu/degree-programs/bachelor-degree-in-nursing",1,1,1,1
Columbia Basin College,Pasco,WA,zip,"http://www.columbiabasin.edu/nursing",1,0,0,0
"Columbia College, Missouri",Columbia,MO,zip,"http://www.ccis.edu/departments/nursing.aspx",1,0,0,0
Columbia College-SC,Columbia,SC,zip,"http://www.cconlinecampus.edu",1,0,0,0
Columbia University,New York,NY,zip,"http://www.nursing.columbia.edu",0,1,1,1
Columbus State University,Columbus,GA,zip,"https://nursing.columbusstate.edu/",1,1,0,0
Columbus State University,Columbus,GA,zip,"https://nursing.columbusstate.edu/",0,0,0,0
Commonwealth University,Moorhead,MN,zip,"http://www.cord.edu/dept/splash/nursing/",1,0,0,0
Concordia University Irvine,Irvine,CA,zip,"http://www.cui.edu/nursing",1,0,0,0
Concordia University Saint Paul,Saint Paul,MN,zip,"http://csp.edu/",1,0,0,0
Concordia University Texas,Austin,TX,zip,"http://www.concordia.edu/nursing",1,0,0,0
Concordia University Wisconsin,Mequon,WI,zip,"http://www.cuw.edu",1,1,1,1
Cone Health,Fort Worth,TX,zip,"http://www.cookchildrens.org",0,0,0,0
Coppin State University,Baltimore,MD,zip,"http://www.coppin.edu/nursing",1,1,1,1
Corewell Health East,Springfield,MO,zip,"http://www.coxcollege.edu",1,1,0,1
Creighton University,Omaha,NE,zip,"http://www.creighton.edu",1,1,1,1
Crown College,St. Bonifacius,MN,zip,"https://www.crown.edu/on-campus-degree-programs/nursing/nursing-bsn/",1,0,0,0
Cumberland University,Lebanon,TN,zip,"http://www.cumberland.edu",1,1,0,0
CUNY School of Professional Studies,New York,NY,zip,"http://sps.cuny.edu/programs/bs_nursing",1,1,0,0
Curry College,Milton,MA,zip,"http://www.curry.edu/",1,1,0,0
Dakota Wesleyan University,Mitchell,SD,zip,"http://www.dwu.edu/nursing/",1,0,0,0
Davenport University,Grand Rapids,MI,zip,"http://www.davenport.edu/programs/health-professions",1,1,0,1
Defiance College,Defiance,OH,zip,"http://www.defiance.edu",1,0,0,0
Delta State University,Cleveland,MS,zip,"http://www.deltastate.edu/",1,1,1,1
Denver College of Nursing,Denver,CO,zip,"http://www.denvercollegeofnursing.edu",1,1,0,0
DePaul University,Chicago,IL,zip,"http://www.depaul.edu",1,1,1,0
DeSales University,Center Valley,PA,zip,"http://www.desales.edu/nursing",1,1,1,1
Dominican University New York,Orangeburg,NY,zip,"https://www.duny.edu/nursing-2/",1,1,1,0
Dominican University of California,San Rafael,CA,zip,"http://www.dominican.edu",1,0,0,0
"Dominican University, Illinois",River Forest,IL,zip,"http://www.dom.edu/academics/majors-programs/bachelor-science-nursing",1,0,0,0
Dordt University,Sioux Center,IA,zip,"http://www.dordt.edu",1,0,0,0
Drexel University,Philadelphia,PA,zip,"http://www.drexel.edu",1,1,1,1
Duke University,Durham,NC,zip,"http://nursing.duke.edu",1,1,1,0
Duquesne University,Pittsburgh,PA,zip,"http://www.nursing.duq.edu",1,1,1,1
D'Youville University,Buffalo,NY,zip,"http://www.dyc.edu",1,1,1,1
Eagle Gate College,Murray,UT,zip,"http://www.eaglegatecollege.edu/programs/healthcare/nursing",1,1,0,0
East Carolina University,Greenville,NC,zip,"http://www.nursing.ecu.edu",1,1,1,1
East Tennessee State University,Johnson City,TN,zip,"http://www.etsu.edu/nursing",1,1,1,1
East Tennessee State University and Tennessee Technological University Joint DNP Program,Johnson City,TN,zip,"http://www.etsu.edu",0,0,1,0
East Texas Baptist University,Marshall,TX,zip,"http://www.etbu.edu",1,0,0,0
Eastern Florida State College,Melbourne,FL,zip,"http://www.easternflorida.edu/academics/bachelors-degrees/rn-to-bsn/",1,0,0,0
Eastern Illinois University,Charleston,IL,zip,"http://www.eiu.edu/~nursing",1,0,0,0
Eastern Kentucky University,Richmond,KY,zip,"https://bsn-gn.eku.edu/",1,1,1,1
Eastern Mennonite University,Harrisonburg,VA,zip,"http://www.emu.edu/",1,1,1,0
Eastern Michigan University,Ypsilanti,MI,zip,"http://www.emich.edu",1,1,1,1
Eastern University,St. Davids,PA,zip,"http://www.eastern.edu",1,1,0,0
ECPI University-Orlando,Lake Mary,FL,zip,"http://www.remingtonnursing.com",1,0,0,0
ECPI University-Virginia,Virginia Beach,VA,zip,"http://www.ecpi.edu/college-of-nursing",1,1,0,0
Edgewood College,Madison,WI,zip,"http://www.edgewood.edu",1,1,1,0
Elizabethtown College,Elmhurst,IL,zip,"http://www.elmhurst.edu",1,1,0,0
Elms College,Chicopee,MA,zip,"http://www.elms.edu",1,1,1,1
Emmanuel College,Boston,MA,zip,"http://www.emmanuel.edu",1,1,0,0
Emory & Henry College,Marion,VA,zip,"http://www.ehc.edu/rn-bsn",1,0,0,0
Emory Healthcare,Atlanta,GA,zip,"http://www.ourehc.org",0,0,0,0
Emory University,Atlanta,GA,zip,"http://www.nursing.emory.edu",1,1,1,1
Endicott College,Beverly,MA,zip,"https://www.endicott.edu/academics/schools/nursing/nursing-program",1,0,0,0
Fairfield University,Fairfield,CT,zip,"http://www.fairfield.edu/son/index.html",1,1,1,0
Fairleigh Dickinson University,Teaneck,NJ,zip,"http://view.fdu.edu/default.aspx?id=166",1,1,1,1
Fairmont State University,Fairmont,WV,zip,"http://www.fairmontstate.edu",1,0,0,0
Farmingdale State College,Farmingdale,NY,zip,"http://www.farmingdale.edu/academics/health-sciences/nursing/index.shtml",1,0,0,0
Fayetteville State University,Fayetteville,NC,zip,"http://www.uncfsu.edu/nursing/",1,1,0,0
Felician University,Lodi,NJ,zip,"http://www.felician.edu",1,1,1,1
Ferris State University,Big Rapids,MI,zip,"http://www.ferris.edu/htmls/colleges/alliedhe/nursing/homepage.htm",1,1,1,0
Finlandia University,Hancock,MI,zip,"http://www.finlandia.edu",1,0,0,0
Fisher College,Brockton,MA,zip,"http://www.fisher.edu/bsn",1,0,0,0
Fitchburg State University,Fitchburg,MA,zip,"http://www.fitchburgstate.edu",1,1,0,0
Florida Atlantic University,Boca Raton,FL,zip,"http://nursing.fau.edu/",1,1,1,0
Florida Gateway College,Lake City,FL,zip,"https://www.fgc.edu/new-students/degree-tracks-2/bachelor-of-science-in-nursing/",1,0,0,0
Florida Gulf Coast University,Fort Myers,FL,zip,"http://www.fgcu.edu/chp/nursing",1,1,1,0
Florida International University,Miami,FL,zip,"http://www.fiu.edu",1,1,1,0
Florida National University,Hialeah,FL,zip,"http://www.fnu.edu",1,1,0,0
Florida Southern College,Lakeland,FL,zip,"http://www.flsouthern.edu",1,1,1,1
Florida State University,Tallahassee,FL,zip,"http://www.fsu.edu",1,0,1,1
Fort Hays State University,Hays,KS,zip,"http://www.fhsu.edu",1,1,1,0
Framingham State University,Framingham,MA,zip,"https://www.framingham.edu/academics/colleges/science-technology-engineering-and-mathematics/nursing/",1,1,0,0
Francis Marion University,Florence,SC,zip,"https://www.fmarion.edu/healthsciences/nursing",1,1,1,0
Franciscan University of Steubenville,Steubenville,OH,zip,"http://www.franciscan.edu",1,1,0,1
Franklin University,Columbus,OH,zip,"http://www.franklin.edu/nursing",1,1,0,0
Freed-Hardeman University,Henderson,TN,zip,"http://www.fhu.edu/nursing",1,0,0,0
Fresno Pacific University,Fresno,CA,zip,"http://www.fresno.edu",1,1,0,0
Front Range Community College,Westminster,CO,zip,"http://www.frontrange.edu/rntobsn",1,0,0,0
Frostburg State University,Frostburg,MD,zip,"http://www.frostburg.edu/nursing/",1,1,0,0
Galen College of Nursing,Louisville,KY,zip,"http://www.galencollege.edu",1,0,0,0
Gannon University,Erie,PA,zip,"http://www.gannon.edu",1,1,1,1
George Fox University,Newberg,OR,zip,"http://www.georgefox.edu/academics/undergrad/departments/nursing/index.html",1,0,0,0
George Mason University,Fairfax,VA,zip,"http://www.gmu.edu",1,1,1,0
George Washington University,Washington,DC,zip,"http://nursing.gwu.edu/",1,1,1,1
Georgetown University,Washington,DC,zip,"http://nursing.georgetown.edu",1,1,1,1
Georgia College & State University,Milledgeville,GA,zip,"http://www.gcsu.edu/nursing",1,1,1,1
Georgia Gwinnett College,Lawrenceville,GA,zip,"http://www.ggc.edu/academics/schools/school-of-health-sciences/nursing/",1,0,0,0
Georgia Intercollegiate Consortium for Graduate Nursing Education,Statesboro,GA,zip,"https://chp.georgiasouthern.edu/nursing/",1,1,1,1
Georgia Southwestern State University,Americus,GA,zip,"http://gsw.edu/Academics/Schools-and-Departments/School-of-Nursing/",1,1,0,0
Georgia Southwestern State University,Americus,GA,zip,"http://gsw.edu/Academics/Schools-and-Departments/School-of-Nursing/",0,0,0,0
Georgia State University,Atlanta,GA,zip,"http://www.gsu.edu",1,1,1,1
Georgian Court University,Lakewood,NJ,zip,"http://www.georgian.edu/nursing/index.htm",1,0,0,0
Glendale Career College,Glendale,CA,zip,"https://www.glendalecareer.com/programs/bachelor-of-science-in-nursing/",1,0,0,0
Gonzaga University,Spokane,WA,zip,"http://www.gonzaga.edu",1,1,1,0
Goodwin University,East Hartford,CT,zip,"http://www.goodwin.edu",1,1,0,0
Goshen College,Goshen,IN,zip,"https://www.goshen.edu/academics/nursing/",1,1,1,0
Goshen College-Eastern Mennonite University DNP Consortium,Goshen,IN,zip,"http://www.goshen.edu/academics/nursing",0,0,1,0
Graceland University,Independence,MO,zip,"http://www.graceland.edu",1,1,1,1
Grambling State University,Grambling,LA,zip,"http://www.gram.edu",1,0,0,0
Grand Canyon University,Phoenix,AZ,zip,"http://www.gcu.edu/scon",1,1,1,1
Grand Valley State University,Grand Rapids,MI,zip,"http://www.gvsu.edu/kcon/",1,1,1,0
Grand View University,Des Moines,IA,zip,"https://www.grandview.edu/",1,0,0,0
Granite State College,Concord,NH,zip,"http://www.granite.edu/academics/degrees/bachelor/nursing.php",1,1,0,0
Grantham University,Lenexa,KS,zip,"https://www.grantham.edu/school-of-nursing/",1,1,0,0
Gulf Coast State College,Panama City,FL,zip,"http://www.gulfcoast.edu/health_sciences/nursing/bsn/default.htm",1,0,0,0
Gustavus Adolphus College,Saint Peter,MN,zip,"https://gustavus.edu/nursing",1,0,0,0
Gwynedd Mercy University,Gwynedd Valley,PA,zip,"http://www.gmercyu.edu/academics/graduate-programs/nursing",1,1,1,1
Hampton University,Hampton,VA,zip,"http://nursing.hamptonu.edu/",1,0,0,0
Hannibal-LaGrange University,Hannibal,MO,zip,"http://www.hlg.edu/academics/departments/nursing/index.php",1,0,0,0
Harding University,Searcy,AR,zip,"https://www.harding.edu/academics/colleges-departments/nursing",1,1,0,1
Hardin-Simmons University,Abilene,TX,zip,"http://www.hsutx.edu",0,0,0,0
Harrisburg University of Science and Technology,Harrisburg,PA,zip,"http://adultdegrees.harrisburgu.edu/bachelor-of-science-in-nursing-rn-bsn/ https://harrisburgu.edu/nsms-program-main/",1,1,0,0
Hartwick College,Oneonta,NY,zip,"http://www.hartwick.edu",1,0,0,0
Hawaii Pacific University,Honolulu,HI,zip,"http://www.hpu.edu",1,1,1,1
Heidelberg University,Tiffin,OH,zip,"https://www.heidelberg.edu/academics/programs/nursing/rn-bsn-pathway",1,0,0,0
Helene Fuld College of Nursing,New York,NY,zip,"http://www.helenefuld.edu",1,0,0,0
Henderson State University,Arkadelphia,AR,zip,"http://www.hsu.edu",1,1,0,0
Heritage University,Toppenish,WA,zip,"http://www.heritage.edu/Nursing",1,0,0,0
"Herzing University, Atlanta",Atlanta,GA,zip,"http://www.herzing.edu/academics/nursing/programs/atlanta",1,0,0,0
"Herzing University, Brookfield",Brookfield,WI,zip,"http://www.herzing.edu/academics/nursing",1,0,0,0
"Herzing University, Kenosha",Kenosha,WI,zip,"http://www.herzing.edu/kenosha/career-programs/undergraduate-degrees/healthcare/bsn-bachelor-in-nursing",1,0,0,0
"Herzing University, Madison",Madison,WI,zip,"http://herzing.edu/madison",1,1,0,1
"Herzing University, Minneapolis",St. Louis Park,MN,zip,"http://www.herzing.edu/academics/nursing/programs/minneapolis",1,0,0,0
"Herzing University, New Orleans",Metairie,LA,zip,"https://www.herzing.edu/nursing/bsn-degree/louisiana/new-orleans",1,0,0,0
"Herzing University, Orlando",Winter Park,FL,zip,"http://www.herzing.edu/academics/nursing/programs/orlando",1,0,0,0
Hesston College,Hesston,KS,zip,"http://www.hesston.edu/academics/departments/nursing-department",1,0,0,0
Hiram College,Hiram,OH,zip,"http://www.hiram.edu",1,0,0,0
Hofstra University,Hempstead,NY,zip,"http://www.hofstra.edu/academics/colleges/nursing-physician-assistant/index.html",0,1,0,0
Holy Family University,Philadelphia,PA,zip,"http://www.holyfamily.edu",1,1,1,0
Holy Names University,Oakland,CA,zip,"http://www.hnu.edu",1,1,0,1
"Homestead Schools, Inc.",Torrance,CA,zip,"http://www.homesteadschools.net",1,0,0,0
Hood College,Frederick,MD,zip,"https://www.hood.edu/academics/programs/nursing-bsn",1,0,0,0
Hope College,Holland,MI,zip,"http://www.hope.edu/academic/nursing/",1,0,0,0
Houston Christian University,Houston,TX,zip,"https://www.hbu.edu/school-of-nursing-and-allied-health/",0,1,0,0
Houston Methodist,Houston,TX,zip,"http://www.methodisthealth.com",0,0,0,0
Howard Payne University,Brownwood,TX,zip,"http://www.hputx.edu/academics/schools/school-of-nursing/",1,0,0,0
Howard University,Washington,DC,zip,"https://cnahs.howard.edu/",1,1,0,1
Humboldt State University,Arcata,CA,zip,"http://www.nursing.humboldt.edu",1,0,0,0
Hunter College of the City University of New York,New York,NY,zip,"http://www.hunter.cuny.edu",1,1,1,1
Huntington University,Huntington,IN,zip,"https://www.huntington.edu/nursing",1,0,0,0
Husson University,Bangor,ME,zip,"http://www.husson.edu",1,1,0,1
Idaho State University,Pocatello,ID,zip,"http://www.isu.edu/departments/nursing/",1,1,1,0
Illinois College,Jacksonville,IL,zip,"https://www.ic.edu/nursing",1,0,0,0
Illinois State University,Normal,IL,zip,"http://nursing.illinoisstate.edu/",1,1,1,1
Illinois Wesleyan University,Bloomington,IL,zip,"https://www.iwu.edu/nursing/",1,0,0,0
Immaculata University,Immaculata,PA,zip,"http://www.immaculata.edu",1,1,0,0
Indiana University Kokomo,Kokomo,IN,zip,"http://www.iuk.indiana.edu/iuk/iuk_nursing.html",1,0,0,0
Indiana University of Pennsylvania,Indiana,PA,zip,"http://www.iup.edu",1,1,0,0
Indiana University South Bend,South Bend,IN,zip,"http://www.iusb.edu/~nursing",1,1,0,0
Indiana University Southeast,New Albany,IN,zip,"http://www.ius.edu/nursing",1,1,0,0
Indiana University-Purdue University Columbus,Columbus,IN,zip,"http://www.iupuc.edu/nursing",1,1,0,0
Indiana University-Purdue University Indianapolis,Indianapolis,IN,zip,"http://nursing.iupui.edu",1,1,1,1
Indiana Wesleyan University,Marion,IN,zip,"http://www.indwes.edu/nursingprograms/",1,1,1,1
Intercollegiate Consortium for a Master of Science in Nursing,Hammand,LA,zip,"https://www.nicholls.edu/nursing/",0,1,0,0
Iona University,New Rochelle,NY,zip,"http://www.iona.edu",1,0,0,0
Jacksonville State University,Jacksonville,AL,zip,"http://www.jsu.edu/nursing/index.html",1,1,1,0
Jacksonville University,Jacksonville,FL,zip,"http://www.ju.edu/",1,1,1,1
James H. Quillen VA Medical Center,Mountain Home,TN,zip,"http://www.mountainhome.va.gov/",0,0,0,0
James Madison University,Harrisonburg,VA,zip,"http://www.nursing.jmu.edu/",1,1,1,0
John Brown University,Siloam Springs,AR,zip,"http://www.jbu.edu/majors/nursing",1,0,0,0
Johns Hopkins University,Baltimore,MD,zip,"https://nursing.jhu.edu/",0,1,1,1
Joyce University of Nursing and Health Sciences,Draper,UT,zip,"http://www.joyce.edu",1,1,0,0
Kansas Wesleyan University,Salina,KS,zip,"http://www.kwu.edu/academics/academic-departments/divisiondepartment-of-nursing",1,0,0,0
Keene State College,Keene,NH,zip,"http://www.keene.edu",1,0,0,0
Keiser University,Ft. Lauderdale,FL,zip,"http://www.keiseruniversity.edu/nursing-BS.php",1,1,1,0
Kennesaw State University,Kennesaw,GA,zip,"http://www.kennesaw.edu",1,1,0,0
Kent State University,Kent,OH,zip,"http://www.kent.edu",1,1,1,1
Kentucky Christian University,Grayson,KY,zip,"http://www.kcu.edu",1,1,0,0
Keuka College,Keuka Park,NY,zip,"http://www.keuka.edu",1,1,0,0
King University,Bristol,TN,zip,"http://www.king.edu",1,1,1,1
King's College,Wilkes-Barre,PA,zip,"https://www.kings.edu/academics/undergraduate_majors/nursing",1,0,0,0
La Salle University,Philadelphia,PA,zip,"http://www.lasalle.edu",1,1,1,1
"Laboure College of Healthcare, Inc.",Milton,MA,zip,"http://www.laboure.edu",1,0,0,0
Lake Superior State University,Sault Sainte Marie,MI,zip,"http://www.lssu.edu/nursing",1,0,0,0
Lakeland University,Plymouth,WI,zip,"https://lakeland.edu/Evening-Weekend-and-Online/rn-to-bsn-completion-program",1,0,0,0
Lakeview College of Nursing,Danville,IL,zip,"http://www.lakeviewcol.edu",1,0,0,0
Lander University,Greenwood,SC,zip,"http://www.lander.edu/nursing/",1,1,0,0
Lawrence Technological University,Southfield,MI,zip,"https://www.ltu.edu/arts_sciences/naturalsciences/bachelor-of-science-nursing.asp",1,0,0,0
LCMC Health,Syracuse,NY,zip,"http://www.lemoyne.edu/nursing",1,1,0,1
Lebanese American University,New York,NY,zip,"http://nursing.lau.edu.lb",1,0,0,0
Lee University,Cleveland,TN,zip,"http://leeuniversity.edu/academics/nursing/",1,0,1,0
Lees-McRae College,Banner Elk,NC,zip,"http://www.lmc.edu/sites/academics/offcampusprograms/nursing.htm",1,0,0,0
Lehman College-The City University of New York,Bronx,NY,zip,"http://www.lehman.cuny.edu/academics/nursing/",1,1,1,1
Lenoir-Rhyne University,Hickory,NC,zip,"http://www.lrc.edu",1,1,1,0
LeTourneau University,Longview,TX,zip,"http://www.letu.edu/academics/catalog/nursing",1,0,0,0
Lewis University,Romeoville,IL,zip,"http://www.lewisu.edu",1,1,1,1
Lewis-Clark State College,Lewiston,ID,zip,"http://www.lcsc.edu/nursing/",1,0,0,0
Liberty University,Lynchburg,VA,zip,"http://www.liberty.edu",1,1,1,1
Limestone University,Gaffney,SC,zip,"https://catalog/limestone.edu",1,0,0,0
"Lincoln University, Pennsylvania",Lincoln University,PA,zip,"https://www.lincoln.edu/",1,0,0,0
Lindsey Wilson College,Columbia,KY,zip,"http://www.lindsey.edu",1,0,0,0
Linfield University,Portland,OR,zip,"http://www.linfield.edu",1,1,0,0
Loma Linda University,Loma Linda,CA,zip,"http://www.llu.edu",1,1,1,0
"Long Island University, Brooklyn Campus",Brooklyn,NY,zip,"http://www.liu.edu",1,1,0,1
"Long Island University, C. W. Post Campus",Brookville,NY,zip,"http://liu.edu/post/nursing",1,1,0,0
Longwood University,Farmville,VA,zip,"http://www.longwood.edu/nursing",1,0,0,0
Louisiana Christian University,Pineville,LA,zip,"http://www.lacollege.edu",1,0,0,0
Louisiana State University Health Sciences Center,New Orleans,LA,zip,"http://nursing.lsuhsc.edu/",1,1,1,0
Lourdes University,Sylvania,OH,zip,"http://www.lourdes.edu",1,1,0,0
Loyola University Chicago,Maywood,IL,zip,"http://www.luc.edu",1,1,1,1
Loyola University New Orleans,New Orleans,LA,zip,"http://www.loyno.edu/nursing/",1,1,1,0
Luther College,Decorah,IA,zip,"http://www.luther.edu/learning/dept/nursing.html",1,0,0,0
Madonna University,Livonia,MI,zip,"http://www.madonna.edu",1,1,1,1
Maine College of Health Professions,Lewiston,ME,zip,"http://www.mchp.edu/rn-to-bsn-program",1,0,0,0
Malcom Randall Veterans Administration Medical Center,Gainesville,FL,zip,"http://www.northflorida.va.gov",0,0,0,0
Malone University,Canton,OH,zip,"http://www.malone.edu",1,1,0,0
Manhattanville College,Purchase,NY,zip,"https://www.mville.edu/academics/school-nursing-and-health-sciences",1,0,0,0
Maranatha Baptist University,Watertown,WI,zip,"http://www.mbu.edu",1,0,0,0
Marian University,Indianapolis,IN,zip,"http://www.marian.edu",1,0,1,0
Marian University of Fond du Lac,Fond du Lac,WI,zip,"http://www.marianuniversity.edu",1,1,0,0
Marquette University,Milwaukee,WI,zip,"https://www.marquette.edu/nursing/",1,1,1,1
Mars Hill University,Mars Hill,NC,zip,"http://www.mhu.edu/nursing",1,0,0,0
Mary Baldwin University,Fishersville,VA,zip,"https://go.marybaldwin.edu/health_sciences/",1,1,0,0
Marymount University,Arlington,VA,zip,"http://www.marymount.edu",1,1,1,0
Maryville University of St. Louis,St. Louis,MO,zip,"http://www.maryville.edu/hp/nursing/",1,1,1,1
Marywood University,Scranton,PA,zip,"http://www.marywood.edu/nursing/index.html",1,0,0,0
Mayville State University,Mayville,ND,zip,"https://mayvillestate.edu/academics/majors-and-minors/nursing/",1,1,0,0
McKendree University,Lebanon,IL,zip,"http://www.mckendree.edu",1,1,1,0
McMurry University,Abilene,TX,zip,"http://www.mcm.edu",0,0,0,0
McNeese State University,Lake Charles,LA,zip,"http://www.mcneese.edu",1,0,0,0
McNeese State University,Lake Charles,LA,zip,"http://www.mcneese.edu",0,0,0,0
MCPHS University,Boston,MA,zip,"http://www.mcphs.edu",1,1,0,1
Medical University of South Carolina,Charleston,SC,zip,"http://www.musc.edu/nursing",1,1,1,0
MedStar Franklin Square Medical Center,Washington,DC,zip,"http://www.medstarwashington.org",0,0,0,0
Mercer University,Atlanta,GA,zip,"http://nursing.mercer.edu/",1,1,1,0
Mercy College,Dobbs Ferry,NY,zip,"http://www.mercy.edu",1,1,0,0
Mercy College of Health Sciences,Des Moines,IA,zip,"http://www.mchs.edu",1,0,0,0
Mercy College of Ohio,Toledo,OH,zip,"http://www.mercycollege.edu",1,1,0,0
Messiah University,Mechanicsburg,PA,zip,"https://www.messiah.edu/info/20205/department_of_nursing",1,1,1,0
Methodist College,Peoria,IL,zip,"http://www.methodistcol.edu",1,1,0,0
Methodist University,Fayetteville,NC,zip,"http://www.methodist.edu/nursing",1,0,0,0
Metropolitan State University,Saint Paul,MN,zip,"https://www.metrostate.edu/academics/nursing-and-health-sciences",1,1,1,0
Metropolitan State University of Denver,Denver,CO,zip,"http://www.msudenver.edu/nursing",1,0,0,0
MGH Institute of Health Professions,Boston,MA,zip,"http://www.mghihp.edu",1,1,1,0
Miami Dade College,Miami,FL,zip,"http://wwww.mdc.edu/medical/nursing/default.asp",1,0,0,0
Miami University,Hamilton,OH,zip,"http://miamioh.edu/regionals/academics/departments/nsg/index.html",1,0,0,0
Miami VA Healthcare System,Miami,FL,zip,"http://www.miami.va.gov/",0,0,0,0
Michigan State University,East Lansing,MI,zip,"http://nursing.msu.edu/",1,1,1,1
MidAmerica Nazarene University,Olathe,KS,zip,"https://www.mnu.edu/undergraduate/majors-minors/nursing-education-department",1,1,0,1
Middle Tennessee State University,Murfreesboro,TN,zip,"http://www.mtsu.edu",1,1,0,1
Midwestern State University,Wichita Falls,TX,zip,"http://www.mwsu.edu",1,1,0,1
Millersville University,Millersville,PA,zip,"http://www.millersville.edu/nursing/",1,1,1,1
Milligan University,Milligan College,TN,zip,"http://www.milligan.edu",1,0,0,0
Millikin University,Decatur,IL,zip,"http://www.millikin.edu",1,1,1,0
Milwaukee School of Engineering,Milwaukee,WI,zip,"http://www.msoe.edu",1,1,0,1
Minnesota State University Mankato,Mankato,MN,zip,"http://ahn.mnsu.edu/nursing/",1,0,1,0
Minnesota State University Moorhead,Moorhead,MN,zip,"http://www.mnstate.edu/nursing/",1,1,0,0
Minot State University,Minot,ND,zip,"http://www.minotstateu.edu/nursing/",1,0,0,0
Misericordia University,Dallas,PA,zip,"http://www.misericordia.edu/nursing",1,1,1,1
Mississippi College,Clinton,MS,zip,"http://www.mc.edu",1,1,0,0
Mississippi University for Women,Columbus,MS,zip,"http://www.muw.edu/nursing",1,1,1,1
Missouri Baptist University,St. Louis,MO,zip,"https://www.mobap.edu/academics/school-of-nursing/",1,0,0,0
Missouri State University,Springfield,MO,zip,"http://www.missouristate.edu/nursing/",1,1,1,0
Missouri Valley College,Marshall,MO,zip,"https://www.moval.edu/academics/academic-divisions/school-of-nursing/nursing/",1,1,0,0
Missouri Western State University,Saint Joseph,MO,zip,"http://www.missouriwestern.edu/nursing",1,1,0,0
Molloy University,Rockville Centre,NY,zip,"http://www.molloy.edu/academics/nursing-division",1,1,1,1
Monmouth University,West Long Branch,NJ,zip,"http://www.monmouth.edu",1,1,1,1
Montana State University,Bozeman,MT,zip,"http://www.montana.edu",1,1,1,0
Montana State University Billings,Billings,MT,zip,"http://www.msubillings.edu",1,0,0,0
Montana Technological University,Butte,MT,zip,"http://www.mtech.edu/academics/clsps/nursing",1,0,0,0
Montclair State University,Montclair,NJ,zip,"http://www.montclair.edu/nursing",1,1,0,0
Moravian University,Bethlehem,PA,zip,"http://www.moravian.edu/nursing",1,1,0,0
Morehead State University,Morehead,KY,zip,"http://www.moreheadstate.edu",1,1,0,0
Morgan Community College,Fort Morgan,CO,zip,"https://www.morgancc.edu/bsn/",1,0,0,0
Morgan State University,Baltimore,MD,zip,"http://www.morgan.edu",1,1,0,0
Morningside University,Sioux City,IA,zip,"http://www.morningside.edu",1,1,1,1
Mount Carmel College of Nursing,Columbus,OH,zip,"http://www.mccn.edu",1,1,1,1
Mount Marty University,Yankton,SD,zip,"http://www.mtmc.edu",1,1,0,1
Mount Mary University,Milwaukee,WI,zip,"http://www.mtmary.edu/majors-programs/undergraduate/bsn/index.html",1,0,0,0
Mount Mercy University,Cedar Rapids,IA,zip,"http://www.mtmercy.edu",1,1,1,0
Mount Saint Mary College,Newburgh,NY,zip,"http://www.msmc.edu",1,1,0,1
"Mount Saint Mary's University, Los Angeles",Los Angeles,CA,zip,"http://www.msmu.edu",1,1,0,1
Mount Sinai Phillips School of Nursing,New York,NY,zip,"http://www.pbisn.edu",1,0,0,0
Mount St. Joseph University,Cincinnati,OH,zip,"http://www.msj.edu",1,1,1,0
Mount Vernon Nazarene University,Mount Vernon,OH,zip,"http://www.mvnu.edu",1,1,0,0
Murray State University,Murray,KY,zip,"http://www.murraystate.edu/nursing",1,0,1,0
Muskingum University,New Concord,OH,zip,"http://www.muskingum.edu/dept/nursing/",1,0,0,0
National University,San Diego,CA,zip,"http://www.nu.edu",1,1,0,1
Nazareth College,Rochester,NY,zip,"https://www2.naz.edu/school-health-and-human-services/",1,0,0,0
Nebraska Methodist College,Omaha,NE,zip,"http://www.methodistcollege.edu",1,1,1,0
Nebraska Methodist Hospital,Lincoln,NE,zip,"http://www.nebrwesleyan.edu",1,1,0,0
Nevada State College,Henderson,NV,zip,"http://www.nsc.nevada.edu/academics/programs/nursing",1,0,0,0
New Jersey City University,Jersey City,NJ,zip,"http://www.njcu.edu",1,1,0,0
New Mexico Highlands University,Las Vegas,NM,zip,"http://www.nmhu.edu",1,0,0,0
New Mexico State University,Las Cruces,NM,zip,"http://www.nmsu.edu/~nursing/",1,1,1,1
New York Institute of Technology,Old Westbury,NY,zip,"http://nyit.edu/nursing",1,0,0,0
New York University,New York,NY,zip,"http://www.nyu.edu/nursing",1,1,1,1
New York University Langone Medical Center,New York,NY,zip,"https://jobs.nyulangone.org/career-opportunities/nursing/",0,0,0,0
Newberry College,Newberry,SC,zip,"http://www.newberry.edu/academics/nursing.asp",1,0,0,0
Newman University,Wichita,KS,zip,"http://www.newmanu.edu",1,0,0,0
Niagara University,Lewiston,NY,zip,"http://www.niagara.edu/nursing",1,0,0,0
Nicholls State University,Thibodaux,LA,zip,"http://www.nicholls.edu",1,0,0,0
Nicholls State University,Thibodaux,LA,zip,"http://www.nicholls.edu",0,0,0,0
Nightingale College,Salt Lake City,UT,zip,"http://www.nightingale.edu",1,1,0,0
North Carolina Wesleyan University,Rocky Mount,NC,zip,"https://ncwc.edu/academics/majors-minors/rn-to-bsn/",1,0,0,0
North Dakota State University,Fargo,ND,zip,"https://www.ndsu.edu/nursing/",1,0,1,0
North Park University,Chicago,IL,zip,"http://www.northpark.edu",1,1,1,1
Northcentral University,San Diego,CA,zip,"https://www.ncu.edu/programs-degrees/masters/master-science-nursing",0,1,1,0
Northeastern University,Boston,MA,zip,"https://bouve.northeastern.edu/",1,1,1,1
Northern Arizona University,Flagstaff,AZ,zip,"https://nau.edu/nursing/",1,1,1,1
Northern Illinois University,DeKalb,IL,zip,"http://www.niu.edu",1,1,1,0
Northern Kentucky University,Highland Heights,KY,zip,"http://healthprofessions.nku.edu/",1,1,1,1
Northern Michigan University,Marquette,MI,zip,"http://www.nmu.edu/nursing",1,0,1,0
Northern New Mexico College,Espanola,NM,zip,"http://nnmc.edu",1,0,0,0
Northwest Florida State College,Niceville,FL,zip,"http://www.nwfsc.edu",1,0,0,0
Northwest Nazarene University,Nampa,ID,zip,"http://www.nnu.edu/nursing",1,1,0,0
Northwest University,Kirkland,WA,zip,"http://www.northwestu.edu",1,1,0,0
Northwestern College,Orange City,IA,zip,"https://www.nwciowa.edu/nursing",1,0,0,0
Northwestern Oklahoma State University,Alva,OK,zip,"https://www.nwosu.edu/school-of-professional-studies/nursing",0,0,1,0
Northwestern State University of Louisiana,Shreveport,LA,zip,"http://www.nsula.edu",1,1,1,1
Norwich University,Northfield,VT,zip,"http://www.norwich.edu",1,1,0,1
Notre Dame College,South Euclid,OH,zip,"http://www.notredamecollege.edu",1,1,0,0
Notre Dame of Maryland University,Baltimore,MD,zip,"https://ndm.edu/colleges-and-schools/school-nursing",1,1,0,0
Nova Southeastern University,Fort Lauderdale,FL,zip,"http://www.nova.edu/nursing",1,1,1,1
Nyack College,Nyack,NY,zip,"http://www.nyack.edu/nursing",1,0,0,0
NYU Langone Orthopedic Hospital,New York,NY,zip,"https://nyulangone.org/locations/nyu-langone-orthopedic-hospital",0,0,0,0
Oak Point University,Chicago,IL,zip,"http://www.resu.edu/",1,1,1,0
Oakland University,Rochester,MI,zip,"https://www.oakland.edu/nursing/",1,1,1,1
Ohio Northern University,Ada,OH,zip,"http://www.onu.edu",1,0,0,0
"Ohio State University, The",Columbus,OH,zip,"http://nursing.osu.edu/",1,1,1,1
Ohio University,Athens,OH,zip,"http://www.ohiou.edu",1,1,1,1
Oklahoma Baptist University,Shawnee,OK,zip,"http://www.okbu.edu",1,0,0,0
Oklahoma Christian University,Edmond,OK,zip,"http://www.oc.edu/academics/arts_sciences/nursing/default.aspx",1,0,0,0
Oklahoma City VA Health Care System,Oklahoma City,OK,zip,"https://www.va.gov/oklahoma-city-health-care/work-with-us/internships-and-fellowships/",0,0,0,0
Oklahoma State University,Stillwater,OK,zip,"..\Users\jharrod\AppData\Local\Microsoft\Windows\Temporary Internet Files\Content.Outlook\OVOBQTA0\ProgInfoFrm (1).docx#	1,946,980,0,,https://education.okstate.edu/b",1,0,0,0
Oklahoma Wesleyan University,Bartlesville,OK,zip,"http://nursing.okwu.edu",1,1,0,0
Old Dominion University,Virginia Beach,VA,zip,"http://www.hs.odu.edu/nursing/",1,1,1,0
Olivet College,Olivet,MI,zip,"https://www.olivetcollege.edu/professional-and-graduate/bachelor-science-nursing/",1,0,0,0
Olivet Nazarene University,Bourbonnais,IL,zip,"http://www.olivet.edu",1,1,0,1
Olympic College,Bremerton,WA,zip,"http://www.olympic.edu",1,0,0,0
Oral Roberts University,Tulsa,OK,zip,"http://www.oru.edu",1,1,1,0
Oregon Health & Science University,Portland,OR,zip,"http://www.ohsu.edu/son",1,1,1,0
Ottawa University,Overland Park,KS,zip,"http://www.ottawa.edu/nursing",1,1,0,0
Otterbein University,Westerville,OH,zip,"http://www.otterbein.edu/nursing/",1,1,1,1
Pace University,Pleasantville,NY,zip,"http://www.pace.edu/academics/undergraduate-students/nursing-bs",1,1,1,1
Pacific College,Costa Mesa,CA,zip,"http://www.pacific-college.edu/programs/rn-to-bsn",1,1,0,1
Pacific Lutheran University,Tacoma,WA,zip,"http://www.plu.edu",1,1,1,1
Palm Beach Atlantic University,West Palm Beach,FL,zip,"http://www.pba.edu",1,1,1,0
Park University,Parkville,MO,zip,"http://www.park.edu/academics/academics-programs/undergraduate-programs/nursing/index.html",1,0,0,0
Pasco-Hernando State College,New Port Richey,FL,zip,"http://phsc.edu/program/bachelor-science-nursing",1,0,0,0
Patty Hanks Shelton School of Nursing,Abilene,TX,zip,"http://www.phssn.edu",1,1,0,0
Penn Medicine,Philadelphia,PA,zip,"http://www.pennmedicine.org",0,0,0,0
Penn State Health Milton S. Hershey Medical Center,Lancaster,PA,zip,"http://www.pacollege.edu",1,1,0,1
"Pennsylvania State University, The",University Park,PA,zip,"http://www.psu.edu",1,1,1,1
Pennsylvania Western University,California,PA,zip,"https://www.pennwest.edu/",1,1,1,0
Pensacola Christian College,Pensacola,FL,zip,"http://www.pcci.edu/Academics/Divisions/ArtsAndSciences/Nursing/Default.html",1,1,0,0
Pensacola State College,Pensacola,FL,zip,"http://pensacolastate.edu/department_page.asp?DeptID=6745",1,0,0,0
Pfeiffer University,Misenheimer,NC,zip,"http://www.pfeiffer.edu/academics/programs/nursing-bs",1,0,0,0
Pikes Peak State College,Colorado Springs,CO,zip,"http://www.ppcc.edu/nursing",1,0,0,0
Pima Medical Institute,Tucson,AZ,zip,"http://www.pmi.edu",1,0,0,0
Pittsburg State University,Pittsburg,KS,zip,"http://www.pittstate.edu/nurs",1,1,1,0
Plattsburgh State University of New York,Plattsburgh,NY,zip,"http://web.plattsburgh.edu/academics/nursing/",1,0,0,0
Plymouth State University,Plymouth,NH,zip,"http://www.plymouth.edu/department/nursing/",1,0,0,0
Point Loma Nazarene University,San Diego,CA,zip,"http://www.ptloma.edu/nursing/",1,1,1,1
Ponce Health Sciences University,Ponce,PR,zip,"http://www.psm.edu",1,0,0,0
Post University,Waterbury,CT,zip,"http://www.post.edu/degrees-and-programs/online-programs/undergraduate-degrees/bachelor-of-science-in-nursing-(rn-to-bsn)",1,1,0,0
Prairie View A&M University,Houston,TX,zip,"http://www.pvamu.edu",1,1,1,1
Presentation College,Aberdeen,SD,zip,"http://www.presentation.edu/academics/academic-divisions/nursing-department/",1,1,0,0
Providence Veterans Affairs Medical Center,Providence,RI,zip,"http://www.providence.va.gov/",0,0,0,0
Provo College,Provo,UT,zip,"http://www.provocollege.edu/healthcare/nursing-bachelor-of-science/",1,0,0,0
Purdue University,West Lafayette,IN,zip,"http://www.nursing.purdue.edu",1,1,1,1
Purdue University Global,West Lafayette,IN,zip,"https://www.purdueglobal.edu/degree-programs/nursing",1,1,1,1
Queens University of Charlotte,Charlotte,NC,zip,"http://www.queens.edu",1,1,0,0
Quinnipiac University,Hamden,CT,zip,"http://www.quinnipiac.edu",1,1,1,0
Radford University,Radford,VA,zip,"http://www.radford.edu/content/wchs/home/nursing.html",1,1,1,1
Ralph H. Johnson Veterans Administration Medical Center,Charleston,SC,zip,"http://www.charleston.va.gov",0,0,0,0
Randolph-Macon College,Ashland,VA,zip,"https://www.rmc.edu/departments/nursing",1,0,0,0
Rasmussen University,Bloomington,MN,zip,"http://www.rasmussen.edu/degrees/nursing/rn-bsn/",1,1,0,0
Regent University,Virginia Beach,VA,zip,"http://regent.edu/acad/undergrad/academics/degree/nursing/home.cfm",1,1,0,0
Regis University,Denver,CO,zip,"http://www.regis.edu",1,1,1,1
Reinhardt University,Waleska,GA,zip,"http://www.reinhardt.edu",1,0,0,0
Research College of Nursing,Kansas City,MO,zip,"http://www.researchcollege.edu",1,1,0,0
Rhode Island College,Providence,RI,zip,"http://www.ric.edu/nursing/",1,1,1,0
Rider University,Lawrenceville,NJ,zip,"http://www.rider.edu",1,1,0,1
Riley Hospital for Children at Indiana University Health,Indianapolis,IN,zip,"http://www.rileychildrens.org",0,0,0,0
Robert Morris University,Moon Township,PA,zip,"http://www.rmu.edu",1,1,1,1
Roberts Wesleyan University,Rochester,NY,zip,"http://www.roberts.edu",1,1,0,0
Rochester University,Rochester Hills,MI,zip,"http://www.rc.edu/nursing",1,0,0,0
Rockhurst University,Provo,UT,zip,"http://www.rmuohp.edu",0,0,1,1
Roosevelt University,Chicago,IL,zip,"http://https/www.roosevelt.edu/academics/programs/bachelors-nursing",1,0,0,0
Roseman University of Health Sciences,Henderson,NV,zip,"http://nursing.roseman.edu/",1,1,0,0
Rowan University,Sewell,NJ,zip,"http://www.rowan.edu/colleges/cpce/programs/bs_rn.php",1,1,0,0
Rush University,Chicago,IL,zip,"http://www.rush.edu/rushu/nursing.html",0,1,1,1
Russell Sage College,Troy,NY,zip,"http://www.sage.edu/rsc/academics/programs/nursing/",1,1,0,1
"Rutgers, The State University of New Jersey-Camden",Camden,NJ,zip,"http://nursing.camden.rutgers.edu",1,1,1,0
"Rutgers, The State University of New Jersey-Newark",Newark,NJ,zip,"http://www.nursing.rutgers.edu",1,1,1,1
Sacred Heart University,Fairfield,CT,zip,"http://www.sacredheart.edu",1,1,1,0
Saginaw Valley State University,University Center,MI,zip,"http://www.svsu.edu",1,1,1,1
Saint Anselm College,Manchester,NH,zip,"http://www.anselm.edu",1,0,0,0
Saint Anthony College of Nursing,Rockford,IL,zip,"http://www.sacn.edu",1,1,1,1
Saint Francis Medical Center College of Nursing,Peoria,IL,zip,"http://www.sfmccon.edu",1,1,1,1
Saint Francis University,Loretto,PA,zip,"http://www.francis.edu",1,1,0,0
Saint Joseph's College of Maine,Standish,ME,zip,"http://www.sjcme.edu/gps/nursing.htm",1,1,0,1
Saint Louis University,Saint Louis,MO,zip,"http://www.slu.edu/colleges/NR/",1,1,1,1
Saint Martin's University,Lacey,WA,zip,"http://www.stmartin.edu/nursing",1,0,0,0
Saint Mary-of-the-Woods College,Saint Mary of the Woods,IN,zip,"http://www.smwc.edu/academic/nursing/rn-bsn/",1,1,0,1
Saint Mary's College-Indiana,Notre Dame,IN,zip,"http://www.saintmarys.edu",1,0,1,0
Saint Mary's University of Minnesota,Minneapolis,MN,zip,"http://www.smumn.edu/nursing",1,0,0,0
Saint Peter's University,Jersey City,NJ,zip,"http://www.saintpeters.edu/school-of-nursing",1,1,1,1
Saint Xavier University,Chicago,IL,zip,"http://www.sxu.edu",1,1,0,0
Salem State University,Salem,MA,zip,"http://www.salemstate.edu",1,1,0,0
Salisbury University,Salisbury,MD,zip,"http://www.salisbury.edu",1,1,1,1
Salve Regina University,Newport,RI,zip,"http://www.salve.edu/academics/departments/nur/",1,1,1,0
Sam Houston State University,The Woodlands,TX,zip,"http://www.shsu.edu/~nursing/",1,0,0,0
Samford University,Birmingham,AL,zip,"http://www.samford.edu/nursing/",1,1,1,1
Samuel Merritt University,Oakland,CA,zip,"http://www.samuelmerritt.edu/",1,1,1,1
San Diego State University,San Diego,CA,zip,"http://nursing.sdsu.edu",1,1,0,0
San Francisco State University,San Francisco,CA,zip,"http://www.nursing.sfsu.edu",1,1,0,0
San Jose State University,San Jose,CA,zip,"http://www.sjsu.edu/nursing",1,1,1,0
San Juan Bautista School of Medicine,Caguas,PR,zip,"http://sanjuanbautista.edu/education/programs/bsn-program.html",1,0,0,0
Santa Fe College,Gainesville,FL,zip,"http://www.sfcollege.edu/healthsciences/nursing/",1,0,0,0
Schreiner University,Kerrville,TX,zip,"http://www.schreiner.edu/academics/bs_nursing/index.html",1,0,0,0
Seattle Pacific University,Seattle,WA,zip,"http://www.spu.edu/healthsciences/msn.html",1,0,1,0
Seattle University,Seattle,WA,zip,"http://www.seattleu.edu/nurs",1,0,1,1
Sentara College of Health Sciences,Chesapeake,VA,zip,"http://sentara.edu",1,1,0,0
Seton Hall University,Nutley,NJ,zip,"http://nursing.shu.edu/",1,1,1,1
Seton Hill University,Greensburg,PA,zip,"https://www.setonhill.edu/",1,0,0,0
Shenandoah University,Winchester,VA,zip,"http://www.su.edu/nursing/",1,1,1,1
Shepherd University,Shepherdstown,WV,zip,"https://www.shepherd.edu/nursing",1,0,1,1
Shorter University,Rome,GA,zip,"http://www.shorter.edu",1,0,0,0
Siena College,Loudonville,NY,zip,"http://www.siena.edu/nursing",1,0,0,0
Siena Heights University,Adrian,MI,zip,"http://www.sienaheights.edu/",1,1,0,0
Simmons University,Boston,MA,zip,"http://www.simmons.edu",1,1,1,0
Simpson University,Redding,CA,zip,"http://simpsonu.edu/nursing",1,0,0,0
Slippery Rock University,Slippery Rock,PA,zip,"http://www.sru.edu/pages/1791.asp",1,0,0,0
Sonoma State University,Rohnert Park,CA,zip,"http://www.sonoma.edu/nursing/",1,1,0,1
South College,Knoxville,TN,zip,"http://www.southcollegetn.edu/nursing/nursing.htm",1,1,1,1
South Dakota State University,Brookings,SD,zip,"http://www.sdstate.edu",1,1,1,1
South University,Savannah,GA,zip,"http://www.southuniversity.edu",1,1,1,0
Southeast Missouri Hospital College of Nursing and Health Sciences,Cape Girardeau,MO,zip,"http://www.sehcollege.edu",1,0,0,0
Southeast Missouri State University,Cape Girardeau,MO,zip,"http://www.semo.edu/nursing/",1,1,0,0
Southeastern Louisiana University,Hammond,LA,zip,"http://www.selu.edu/acad_research/depts/nurs/",1,0,1,0
Southeastern Louisiana University,Hammond,LA,zip,"http://www.selu.edu/acad_research/depts/nurs/",0,0,0,0
Southeastern University,Lakeland,FL,zip,"http://www.seu.edu/nursing",1,0,0,0
Southern California CSU DNP Consortium,Fullerton,CA,zip,"http://nursing.fullerton.edu",0,0,1,0
Southern Connecticut State University,New Haven,CT,zip,"http://www.southernct.edu",1,1,0,1
Southern Illinois University Carbondale,Carbondale,IL,zip,"https://sah.siu.edu/undergraduate/nursing/",1,0,0,0
Southern Illinois University Edwardsville,Edwardsville,IL,zip,"http://www.siue.edu",1,1,1,0
Southern Nazarene University,Bethany,OK,zip,"http://www.snu.edu",1,0,0,0
Southern New Hampshire University,Manchester,NH,zip,"http://www.snhu.edu",1,1,0,0
Southern University and A&M College,Baton Rouge,LA,zip,"http://www.subr.edu/suson",1,1,1,0
Southern Utah University,Cedar City,UT,zip,"http://www.suu.edu/sci/nursing",1,0,0,0
Southwest Minnesota State University,Marshall,MN,zip,"http://www.smsu.edu/academics/departments/nursing/",1,0,0,0
Southwest University at El Paso,El Paso,TX,zip,"http://southwestuniversity.edu",1,0,0,0
Southwestern Adventist University,Keene,TX,zip,"http://www.swau.edu/academics/nursing",1,0,0,0
Spalding University,Louisville,KY,zip,"http://www.spalding.edu/nursing",1,1,0,0
Spring Arbor University,Spring Arbor,MI,zip,"http://www.arbor.edu",1,1,1,1
Spring Hill College,Mobile,AL,zip,"http://www.shc.edu",1,0,0,0
St. Ambrose University,Davenport,IA,zip,"http://web.sau.edu/nursing/",1,0,0,0
St. Bonaventure University,St. Bonaventure,NY,zip,"https://www.sbu.edu/academics/nursing",1,0,0,0
St. Cloud State University,St. Cloud,MN,zip,"http://www.stcloudstate.edu",1,0,0,0
St. Francis College,Brooklyn Heights,NY,zip,"http://www.sfc.edu",1,0,0,0
St. John Fisher College,Rochester,NY,zip,"http://www.sjfc.edu/academics/nursing/about/index.dot",1,1,1,1
St. John's University,Collegeville,MN,zip,"http://www.csbsju.edu/nursing",0,0,0,0
St. Luke's College-UnityPoint Health,Sioux City,IA,zip,"http://www.stlukescollege.edu/body.cfm?id=167",1,0,0,0
St. Olaf College,Northfield,MN,zip,"http://wp.stolaf.edu/nursing/",1,0,0,0
St. Petersburg College,Pinellas Park,FL,zip,"http://www.spcollege.edu",1,0,0,0
St. Thomas University,Miami Gardens,FL,zip,"http://www.stu.edu/science/Programs/Nursing",1,1,0,0
Stanbridge University,Irvine,CA,zip,"http://www.stanbridge.edu",1,0,0,0
State University of New York at Delhi,Delhi,NY,zip,"http://www.delhi.edu/academics/masters/nursing/index.php",0,1,0,0
State University of New York Brockport,Brockport,NY,zip,"http://www.brockport.edu",1,1,0,1
State University of New York Downstate Health Sciences University,Brooklyn,NY,zip,"http://www.downstate.edu",1,1,1,1
State University of New York Empire State College,Saratoga Springs,NY,zip,"http://www,esc.edu/nursing",1,1,0,0
State University of New York Polytechnic Institute,Utica,NY,zip,"http://www.sunyit.edu",1,1,0,0
State University of New York Upstate Medical University,Syracuse,NY,zip,"http://www.upstate.edu",1,1,1,1
Stevenson University,Owings Mills,MD,zip,"http://www.stevenson.edu/",1,1,0,0
Stockton University,Galloway,NJ,zip,"http://www.stockton.edu",1,1,1,1
Stony Brook University,Stony Brook,NY,zip,"http://www.hsc.stonybrook.edu",1,1,1,1
Stony Brook University Medical Center,Stony Brook,NY,zip,"http://www.stonybrookmedicalcenter.org",0,0,0,0
Sul Ross State University Rio Grande College,Alpine,TX,zip,"http://www.sulross.edu/rgc",1,0,0,0
Sumner College,Portland,OR,zip,"http://www.sumnercollege.edu/",1,0,0,0
Tarleton State University,Stephenville,TX,zip,"http://www.tarleton.edu/~nursing",1,1,0,0
Temple University,Philadelphia,PA,zip,"http://chpsw.temple.edu/nursing",1,0,1,0
Tennessee Technological University,Cookeville,TN,zip,"http://www.tntech.edu/nursing",1,1,1,0
Tennessee Wesleyan University,Knoxville,TN,zip,"https://www.tnwesleyan.edu/",1,0,0,0
Texas A&M University Health Science Center,Bryan,TX,zip,"http://health.tamu.edu",1,1,0,0
Texas A&M University-Central Texas,Killeen,TX,zip,"https://www.tamuct.edu/departments/nursing/",1,0,0,0
Texas A&M University-Commerce,Commerce,TX,zip,"http://www.tamuc.edu/nursing",1,1,0,0
Texas A&M University-Corpus Christi,Corpus Christi,TX,zip,"http://www.tamucc.edu",1,1,1,1
Texas A&M University-Texarkana,Texarkana,TX,zip,"http://www.tamut.edu",1,1,0,0
Texas Christian University,Fort Worth,TX,zip,"http://www.tcu.edu",1,1,1,1
Texas Lutheran University,Seguin,TX,zip,"http://www.tlu.edu/nursing",1,0,0,0
Texas State University,Round Rock,TX,zip,"https://www.nursing.txstate.edu/",1,1,0,0
Texas Tech University Health Sciences Center,Lubbock,TX,zip,"http://www.ttuhsc.edu/son",1,1,1,1
Texas Tech University Health Sciences Center-El Paso,El Paso,TX,zip,"http://elpaso.ttuhsc.edu/son/",1,1,0,0
Texas Wesleyan University,Fort Worth,TX,zip,"http://www.txwes.edu",0,1,1,1
Texas Woman's University,Denton,TX,zip,"http://www.twu.edu",1,1,1,0
Thomas Edison State University,Trenton,NJ,zip,"http://www.tesc.edu",1,1,1,0
Thomas Jefferson University,Philadelphia,PA,zip,"http://www.tju.edu",1,1,1,1
Thomas Jefferson University Hospitals,Philadelphia,PA,zip,"http://www.jeffersonhospital.org/",0,0,0,0
Toccoa Falls College,Toccoa Falls,GA,zip,"http://tfc.edu/academics/schools/fetterman-school-of-nursing/",1,0,0,0
Touro College,Brooklyn,NY,zip,"http://www1.touro.edu/shs/nursing/nursing.php",1,0,0,0
Touro University California,Vallejo,CA,zip,"http://nursing.tu.edu",0,1,1,1
Touro University Nevada,Henderson,NV,zip,"http://www.tun.touro.edu",1,1,1,1
Towson University,Towson,MD,zip,"http://www.towson.edu",1,1,0,0
Trevecca Nazarene University,Nashville,TN,zip,"http://www.trevecca.edu/news/2005/04/05/trevecca-adds-nursing-program.6301",0,0,0,0
Trine University,Angola,IN,zip,"http://www.trine.edu/bsn",1,0,0,0
Trinidad State College,Trinidad,CO,zip,"http://www.trinidadstate.edu/rn-bsn/index.html",1,0,0,0
Trinity Christian College,Palos Heights,IL,zip,"http://www.trnty.edu",1,0,0,0
Trinity College of Nursing and Health Sciences,Rock Island,IL,zip,"http://www.trinitycollegeqc.edu/.",1,1,0,0
Trinity Washington University,Washington,DC,zip,"http://www.trinitydc.edu",1,0,0,0
Truett McConnell University,Cleveland,GA,zip,"http://www.truett.edu/nursing",1,0,0,0
Truman State University,Kirksville,MO,zip,"http://www.truman.edu",1,0,0,0
Tusculum University,Greeneville,TN,zip,"http:www.tusculum.edu/nursing",1,0,0,0
UCHealth,Aurora,CO,zip,"http://www.uch.edu/find-a-job/nursing-program/Graduate-Nurse-Residency-Program/graduate-nurse-residency-program.aspx",0,0,0,0
UK HealthCare,Lexington,KY,zip,"http://ukhealthcare.uky.edu/nursing/",0,0,0,0
UNC Charlotte/WCU Dual DNP Program,Charlotte,NC,zip,"http://nursing.uncc.edu",0,0,1,0
Uniformed Services University of the Health Sciences,Bethesda,MD,zip,"https://www.usuhs.edu/",0,1,1,0
Union College-Kentucky,Barbourville,KY,zip,"http://www.unionky.edu",1,0,0,0
Union College-Nebraska,Lincoln,NE,zip,"http://www.ucollege.edu",1,0,0,0
Union University,Jackson,TN,zip,"http://www.uu.edu/academics/son/",1,1,1,1
United States University,San Diego,CA,zip,"http://www.usuniversity.edu/programs/school-of-nursing/",1,1,0,0
Unitek College,Fremont,CA,zip,"http://www.unitekcollege.edu",1,0,0,0
Universidad Adventista de las Antillas,Mayaguez,PR,zip,"http://www.uaa.edu/esp/index.php/enfermeria",1,1,0,0
Universidad Ana G. Mendez,Gurabo,PR,zip,"http://www.suagm.edu",1,1,0,0
Universidad Central de Bayamon,Bayamon,PR,zip,"http://www.ucb.edu.pr",1,0,0,0
Universidad del Sagrado Corazon,San Juan,PR,zip,"http://www.sagrado.edu/enfermeria/",1,0,0,0
Universidad Interamericana de Puerto Rico-Barranquitas,Barranquitas,PR,zip,"http://www.br.uipr.edu/inter/index.php/programa-de-enfermeria.html",1,0,0,0
Universidad Interamericana de Puerto Rico-Bayamon,Bayamon,PR,zip,"http://enfermeria.azurewebsites.net/",1,0,0,0
Universidad Interamericana de Puerto Rico-Guayama,Guayama,PR,zip,"http://www.guayama.inter.edu/academicos.html",1,0,0,0
Universidad Interamericana de Puerto Rico-Ponce,Mercedita,PR,zip,"http://ponce.inter.edu/acred/enfermeria/index.html",1,0,0,0
Universidad Interamericana de Puerto Rico-San German,San German,PR,zip,"http://www.sg.inter.edu",1,0,0,0
"University at Buffalo, State University of New York",Buffalo,NY,zip,"http://nursing.buffalo.edu",1,0,1,1
"University of Akron, The",Akron,OH,zip,"http://www.uakron.edu",1,1,1,1
University of Alabama at Birmingham,Birmingham,AL,zip,"http://www.uab.edu/son/index.htm",1,1,1,1
"University of Alabama in Huntsville, The",Huntsville,AL,zip,"http://www.uah.edu/nursing",1,1,1,1
"University of Alabama, The",Tuscaloosa,AL,zip,"http://www.ua.edu",1,1,1,1
University of Alaska Anchorage,Anchorage,AK,zip,"http://www.uaa.alaska.edu/schoolofnursing/",0,0,1,0
University of Arizona Global Campus,Chandler,AZ,zip,"https://www.uagc.edu/online-degrees/bachelors/nursing",1,0,0,0
"University of Arizona, The",Tucson,AZ,zip,"http://www.nursing.arizona.edu/",1,1,1,1
University of Arkansas,Fayetteville,AR,zip,"http://nurs.uark.edu",1,1,1,0
University of Arkansas at Pine Bluff,Pine Bluff,AR,zip,"http://www.uapb.edu/",1,0,0,0
University of Arkansas for Medical Sciences,Little Rock,AR,zip,"http://nursing.uams.edu",1,1,1,1
University of Arkansas-Fort Smith,Fort Smith,AR,zip,"http://uafs.edu/health/college-health-sciences-home-0",1,0,0,0
University of Bridgeport,Bridgeport,CT,zip,"http://www.bridgeport.edu/rntobsn",1,1,0,0
"University of California, Davis",Sacramento,CA,zip,"http://nursing.ucdavis.edu",0,1,0,0
"University of California, Irvine",Irvine,CA,zip,"http://www.ucihs.uci.edu/nursing/",1,1,1,0
"University of California, Los Angeles",Los Angeles,CA,zip,"http://www.nursing.ucla.edu",1,1,1,0
"University of California, San Francisco",San Francisco,CA,zip,"http://www.nurseweb.ucsf.edu",0,1,1,1
University of Central Arkansas,Conway,AR,zip,"http://www.uca.edu/chas/nursing.html",1,1,1,1
University of Central Florida,Orlando,FL,zip,"http://www.nursing.ucf.edu",1,1,1,1
University of Central Missouri,Warrensburg,MO,zip,"http://www.ucmo.edu/",1,1,0,0
University of Central Oklahoma,Edmond,OK,zip,"http://www.uco.edu/cms/nursing/index.asp",1,1,0,0
University of Cincinnati,Cincinnati,OH,zip,"http://www.uc.edu",1,1,1,1
University of Colorado,Aurora,CO,zip,"http://www.nursing.ucdenver.edu",1,1,1,1
University of Colorado at Colorado Springs,Colorado Springs,CO,zip,"http://www.uccs.edu/bethel",1,1,1,1
University of Connecticut,Storrs,CT,zip,"http://www.nursing.uconn.edu",1,1,1,1
University of Delaware,Newark,DE,zip,"https://sites.udel.edu/nursing/",1,1,1,1
University of Detroit Mercy,Detroit,MI,zip,"http://www.udmercy.edu",1,1,1,1
University of Dubuque,Dubuque,IA,zip,"http://www.dbq.edu/academics/nursing",1,0,0,0
"University of Findlay, The",Findlay,OH,zip,"http://www.findlay.edu/healthprofessions/nursing",1,0,0,0
University of Florida,Gainesville,FL,zip,"http://www.nursing.ufl.edu",1,0,1,1
University of Hartford,West Hartford,CT,zip,"http://www.hartford.edu",1,1,0,0
University of Hawaii at Hilo,Hilo,HI,zip,"http://hilo.hawaii.edu/depts/nursing/",0,0,1,0
University of Hawaii at Manoa,Honolulu,HI,zip,"http://www.nursing.hawaii.edu",1,1,1,0
University of Houston,Sugar Land,TX,zip,"http://www.uh.edu/nursing",1,1,0,0
University of Houston-Downtown,Houston,TX,zip,"http://www.uhd.edu/academics/sciences/nursing/",1,0,0,0
University of Houston-Victoria,Victoria,TX,zip,"https://www.uhv.edu/education/undergraduate-degrees/nursing/",1,0,0,0
University of Illinois at Chicago,Chicago,IL,zip,"http://www.uic.edu/nursing/",1,1,1,1
University of Indianapolis,Indianapolis,IN,zip,"http://www.uindy.edu",1,1,1,1
University of Iowa Hospitals and Clinics,Iowa City,IA,zip,"http://www.uihealthcare.org",0,0,0,0
"University of Iowa, The",Iowa City,IA,zip,"http://www.nursing.uiowa.edu",1,1,1,1
University of Jamestown,Jamestown,ND,zip,"http://www.uj.edu",1,0,0,0
University of Kansas,Kansas City,KS,zip,"http://nursing.kumc.edu",1,1,1,0
"University of Kansas Health System, Kansas City Division, The",Kansas City,KS,zip,"http://www.kumed.com",0,0,0,0
University of Kentucky,Lexington,KY,zip,"http://www.uknursing.uky.edu",1,1,1,1
University of Louisiana at Lafayette,Lafayette,LA,zip,"http://www.nursing.louisiana.edu",1,0,1,0
University of Louisiana at Lafayette,Lafayette,LA,zip,"http://www.nursing.louisiana.edu",0,0,0,0
"University of Louisiana at Monroe, The",Monroe,LA,zip,"http://www.ulm.edu/nursing",1,1,0,0
University of Louisville,Louisville,KY,zip,"http://www.louisville.edu/nursing",1,1,1,1
University of Louisville Hospital,Louisville,KY,zip,"http://www.uoflhealthcare.org",0,0,0,0
University of Lynchburg,Lynchburg,VA,zip,"http://www.lynchburg.edu",1,0,0,0
University of Maine,Orono,ME,zip,"http://www.umaine.edu/nursing",1,1,0,1
University of Maine at Fort Kent,Fort Kent,ME,zip,"http://www.umfk.maine.edu/",1,0,0,0
University of Mary,Bismarck,ND,zip,"http://www.umary.edu",1,1,1,0
University of Mary Hardin-Baylor,Belton,TX,zip,"http://www.umhb.edu",1,1,0,1
University of Mary Washington,Fredericksburg,VA,zip,"http://cas.umw.edu/bsn-program/",1,0,0,0
University of Maryland,Baltimore,MD,zip,"http://nursing.umaryland.edu/index.htm",1,1,1,1
University of Maryland Global Campus,Adelphi,MD,zip,"http://www.umuc.edu/academic-programs/bachelors-degrees/nursing-major.cfm",1,0,0,0
University of Massachusetts Amherst,Amherst,MA,zip,"http://www.umass.edu",1,1,1,1
University of Massachusetts Boston,Boston,MA,zip,"http://www.cnhs.umb.edu",1,1,1,1
University of Massachusetts Dartmouth,North Dartmouth,MA,zip,"http://www.umassd.edu/nursing",1,1,1,0
University of Massachusetts Global,Irvine,CA,zip,"https://www.umassglobal.edu/",1,0,1,0
University of Massachusetts Lowell,Lowell,MA,zip,"http://www.uml.edu/college/she",1,1,1,0
University of Massachusetts Medical School,Worcester,MA,zip,"http://www.umassmed.edu/gsn",0,1,1,1
University of Memphis,Memphis,TN,zip,"http://nursing.memphis.edu",1,1,0,1
University of Miami,Coral Gables,FL,zip,"http://www.miami.edu/nur",1,1,1,1
University of Michigan - Ann Arbor,Ann Arbor,MI,zip,"http://www.nursing.umich.edu",1,1,1,1
University of Michigan - Flint,Flint,MI,zip,"http://www.umflint.edu/nursing",1,1,1,1
University of Minnesota,Minneapolis,MN,zip,"https://www.nursing.umn.edu/",1,1,1,1
University of Mississippi Medical Center,Jackson,MS,zip,"http://son.umc.edu/",1,1,1,1
University of Missouri - Columbia,Columbia,MO,zip,"http://nursing.missouri.edu",1,1,1,1
University of Missouri - Kansas City,Kansas City,MO,zip,"http://www.umkc.edu/",1,1,1,1
University of Missouri - St. Louis,St. Louis,MO,zip,"http://www.umsl.edu/~nursing/",1,0,1,1
University of Mobile,Mobile,AL,zip,"http://www.umobile.edu",1,1,1,1
University of Mount Olive,Mount Olive,NC,zip,"http://www.umo.edu",1,1,0,0
University of Mount Union,Alliance,OH,zip,"http://www.mountunion.edu/nursing-major",1,0,0,0
University of Nebraska Medical Center,Omaha,NE,zip,"http://www.unmc.edu/nursing/",1,1,1,1
"University of Nevada, Las Vegas",Las Vegas,NV,zip,"http://nursing.unlv.edu/",1,1,1,1
"University of Nevada, Reno",Reno,NV,zip,"http://www.unr.edu",1,1,1,1
University of New Hampshire,Durham,NH,zip,"http://chhs.unh.edu/nursing",1,1,1,1
University of New Mexico,Albuquerque,NM,zip,"http://nursing.unm.edu/",1,1,1,1
University of North Alabama,Florence,AL,zip,"http://www.una.edu",1,1,0,1
University of North Carolina at Chapel Hill,Chapel Hill,NC,zip,"http://www.unc.edu/depts/nursing/",1,1,1,1
"University of North Carolina at Charlotte, The",Charlotte,NC,zip,"http://www.uncc.edu",1,1,0,1
"University of North Carolina at Charlotte, The",Charlotte,NC,zip,"http://www.uncc.edu",0,0,0,0
University of North Carolina at Greensboro,Greensboro,NC,zip,"http://www.uncg.edu",1,1,1,0
University of North Carolina at Pembroke,Pembroke,NC,zip,"http://www.uncp.edu/nursing/",1,1,0,0
University of North Carolina at Wilmington,Wilmington,NC,zip,"http://www.uncw.edu/son",1,1,1,1
University of North Dakota,Grand Forks,ND,zip,"http://www.nursing.und.edu/",1,1,1,1
University of North Florida,Jacksonville,FL,zip,"http://www.unf.edu/brooks/nursing/",1,0,1,0
University of Northern Colorado,Greeley,CO,zip,"http://www.unco.edu/nhs/nursing",1,1,1,1
University of Northwestern - St. Paul,St. Paul,MN,zip,"http://www.unwsp.edu/web/undergrad/nursing",1,0,0,0
"University of Oklahoma Health Sciences Center, The",Oklahoma City,OK,zip,"http://www.nursing.ouhsc.edu",1,1,1,1
University of Pennsylvania,Philadelphia,PA,zip,"http://www.upenn.edu/nursing/",1,1,1,1
University of Phoenix,Phoenix,AZ,zip,"http://www.phoenix.edu",1,1,1,0
University of Pittsburgh,Pittsburgh,PA,zip,"http://nursing.pitt.edu",1,1,1,1
University of Portland,Portland,OR,zip,"http://nursing.up.edu/",1,0,1,0
University of Providence,Great Falls,MT,zip,"http://www.uprovidence.edu",1,1,0,0
University of Puerto Rico,San Juan,PR,zip,"http://enfermeria.rcm.upr.edu",1,1,0,0
University of Rhode Island,Kingston,RI,zip,"http://www.uri.edu/nursing",1,1,1,1
University of Rochester,Rochester,NY,zip,"http://www.urmc.rochester.edu/son",1,1,1,0
University of Saint Francis,Fort Wayne,IN,zip,"http://www.sf.edu",1,1,1,1
University of Saint Joseph,West Hartford,CT,zip,"http://www.usj.edu",1,1,1,1
University of Saint Mary,Leavenworth,KS,zip,"http://www.stmary.edu",1,1,0,0
University of San Diego,San Diego,CA,zip,"http://www.sandiego.edu/nursing/",0,1,1,0
University of San Francisco,San Francisco,CA,zip,"http://www.usfca.edu/nursing",1,1,1,1
University of Scranton,Scranton,PA,zip,"http://www.scranton.edu",1,1,1,1
University of Sioux Falls,Sioux Falls,SD,zip,"http://www.usiouxfalls.edu",1,0,0,0
University of South Alabama,Mobile,AL,zip,"https://www.southalabama.edu/colleges/con/",1,1,1,1
University of South Carolina,Columbia,SC,zip,"http://www.sc.edu/nursing",1,1,1,1
University of South Carolina Aiken,Aiken,SC,zip,"http://www.usca.edu/nursing",1,0,0,0
University of South Carolina Beaufort,Bluffton,SC,zip,"http://www.uscb.edu",1,0,0,0
University of South Carolina Upstate,Spartanburg,SC,zip,"http://www.uscupstate.edu",1,1,0,0
"University of South Dakota, The",Sioux Falls,SD,zip,"http://www.usd.edu/nursing",1,0,0,0
University of South Florida,Tampa,FL,zip,"http://hsc.usf.edu/nocms/nursing/index.html",1,1,1,0
University of Southern California,Los Angeles,CA,zip,"http://sowkweb.usc.edu/master-science-nursing",0,1,0,0
University of Southern Indiana,Evansville,IN,zip,"http://health.usi.edu",1,1,1,1
University of Southern Maine,Portland,ME,zip,"http://www.usm.maine.edu/nursing",1,1,1,1
"University of Southern Mississippi, The",Hattiesburg,MS,zip,"http://www.nursing.usm.edu",1,0,1,1
University of St. Augustine for Health Sciences,San Marcos,CA,zip,"https://www.usa.edu/",0,1,1,1
University of St. Francis,Joliet,IL,zip,"http://www.stfrancis.edu",1,1,1,1
University of St. Thomas - TX,Houston,TX,zip,"http://www.stthom.edu",1,1,1,1
"University of Tampa, The",Tampa,FL,zip,"http://www.ut.edu",1,1,0,1
University of Tennessee at Chattanooga,Chattanooga,TN,zip,"http://www.utc.edu/nursing",1,1,1,1
"University of Tennessee Health Science Center, The",Memphis,TN,zip,"http://uthsc.edu/nursing",1,0,1,0
"University of Tennessee Southern, The",Pulaski,TN,zip,"http://www.martinmethodist.edu/academics/majorminor/nursing",1,0,0,0
"University of Tennessee, Knoxville",Knoxville,TN,zip,"http://nursing.utk.edu",1,0,1,1
University of Texas at Arlington,Arlington,TX,zip,"http://www.uta.edu/nursing/",1,1,1,1
University of Texas at Austin,Austin,TX,zip,"http://www.utexas.edu/nursing/",1,1,1,1
University of Texas at El Paso,El Paso,TX,zip,"http://www.utep.edu",1,1,1,1
University of Texas at Tyler,Tyler,TX,zip,"http://www.uttyler.edu/nursing",1,1,1,1
"University of Texas Health Science Center at Houston, The",Houston,TX,zip,"http://son.uth.tmc.edu",1,1,1,1
University of Texas Health Science Center at San Antonio,San Antonio,TX,zip,"http://www.uthscsa.edu",1,1,1,1
University of Texas Medical Branch at Galveston,Galveston,TX,zip,"http://www.utmb.edu",1,1,1,0
University of Texas Medical Branch Health System,Galveston,TX,zip,"https://www.utmb.edu/",0,0,0,0
"University of Texas of the Permian Basin, The",Odessa,TX,zip,"http://aa.utpb.edu/nursing/",1,0,0,0
University of Texas Rio Grande Valley,Edinburg,TX,zip,"http://portal.utpa.edu/portal/page/portal/utpa_main/daa_home/hshs_home/hshs_nursing/",1,1,0,1
University of the Cumberlands,Williamsburg,KY,zip,"http://gradweb.ucumberlands.edu/medicine/rn-bsn/overview",1,1,0,0
University of the Incarnate Word,San Antonio,TX,zip,"http://www.uiw.edu",1,1,1,1
University of Toledo,Toledo,OH,zip,"http://www.utoledo.edu/nursing/index.html",1,1,1,1
University of Toledo,Toledo,OH,zip,"http://www.utoledo.edu/nursing/index.html",0,0,0,0
University of Toledo Consortium,Toledo,OH,zip,"http://www.utoledo.edu/nursing",1,0,0,0
University of Utah,Salt Lake City,UT,zip,"http://www.nurs.utah.edu",1,1,1,1
"University of Vermont, The",Burlington,VT,zip,"http://www.uvm.edu",1,1,1,1
University of Virginia,Charlottesville,VA,zip,"http://www.nursing.virginia.edu",1,1,1,0
"University of Virginia's College at Wise, The",Wise,VA,zip,"http://www.uvawise.edu",1,0,0,0
University of Washington,Seattle,WA,zip,"http://nursing.uw.edu",1,1,1,1
University of West Florida,Pensacola,FL,zip,"http://www.uwf.edu/nursing",1,1,0,0
University of West Georgia,Carrollton,GA,zip,"https://www.westga.edu/nursing/",1,1,0,0
"University of Wisconsin, Eau Claire",Eau Claire,WI,zip,"http://www.uwec.edu/CONHS/departments/nursing/index.htm",1,1,1,0
"University of Wisconsin, Green Bay",Green Bay,WI,zip,"https://www.uwgb.edu/nursing-health/",1,1,0,0
"University of Wisconsin, Madison",Madison,WI,zip,"https://nursing.wisc.edu/",1,0,1,1
"University of Wisconsin, Milwaukee",Milwaukee,WI,zip,"http://www.uwm.edu",1,1,1,1
"University of Wisconsin, Oshkosh",Oshkosh,WI,zip,"http://www.uwosh.edu/home_pages/colleges/con/",1,1,1,0
"University of Wisconsin, Stevens Point",Stevens Point,WI,zip,"http://www.uwsp.edu/shcp/pages/prenrsg/prenrsg.aspx",1,0,0,0
University of Wyoming,Laramie,WY,zip,"http://www.uwyo.edu/nursing ",1,1,1,0
Upper Iowa University,Cedar Rapids,IA,zip,"http://www.uiu.edu/nursing",1,0,0,0
Ursuline College,Pepper Pike,OH,zip,"http://www.ursuline.edu",1,1,1,1
Utica University,Utica,NY,zip,"http://www.utica.edu/academic/hhs/nursing/homepage/nursing.htm",1,1,0,1
UW Health,Madison,WI,zip,"http://www.uwhealth.org",0,0,0,0
VA Ann Arbor Healthcare System,Ann Arbor,MI,zip,"http://www.annarbor.va.gov",0,0,0,0
VA Boston Healthcare System,West Roxbury,MA,zip,"http://www.boston.va.gov",0,0,0,0
VA Connecticut Healthcare System,West Haven,CT,zip,"http://www.connecticut.va.gov",0,0,0,0
VA North Texas Health Care System,Dallas,TX,zip,"http://www.northtexas.va.gov",0,0,0,0
VA Northern California Health Care System,Mather,CA,zip,"http://www.northerncalifornia.va.gov/",0,0,0,0
VA Portland Health Care System,Salt Lake City,UT,zip,"http://www.saltlakecity.va.gov",0,0,0,0
Valdosta State University,Valdosta,GA,zip,"https://www.valdosta.edu/colleges/nursing-and-health-sciences/",1,1,0,1
Valencia College,Orlando,FL,zip,"http://valenciacollege.edu/bachelordegrees",1,0,0,0
Valparaiso University,Valparaiso,IN,zip,"http://www.valpo.edu/nursing",1,1,1,0
Vanderbilt University,Nashville,TN,zip,"http://www.nursing.vanderbilt.edu/",0,1,1,1
Vanguard University of Southern California,Costa Mesa,CA,zip,"http://www.vanguard.edu/sps/nursing",1,1,0,0
Villanova University,Villanova,PA,zip,"http://www.nursing.villanova.edu",1,1,1,1
Virginia Commonwealth University,Richmond,VA,zip,"http://www.nursing.vcu.edu/index.html",1,1,1,1
Virginia Commonwealth University Medical Center,Richmond,VA,zip,"http://www.vcuhealth.org",0,0,0,0
Viterbo University,LaCrosse,WI,zip,"http://www.viterbo.edu",1,0,1,0
Walden University,Minneapolis,MN,zip,"http://www.waldenu.edu",1,1,1,1
Walla Walla University,College Place,WA,zip,"http://www.wallawalla.edu/academics/areas-of-study/undergraduate-programs/nursing",1,0,0,0
Walsh University,North Canton,OH,zip,"http://www.walsh.edu/nursing-program",1,1,1,1
Warner Pacific University,Portland,OR,zip,"https://www.warnerpacific.edu/academics/majors/nursing/",1,0,0,0
Washburn University,Topeka,KS,zip,"http://www.washburn.edu/sonu/index.html",1,1,1,1
Washington Adventist University,Takoma Park,MD,zip,"http://www.wau.edu/index.php/academics/undergraduate-programs/nursing-department",1,1,0,0
Washington State University,Spokane,WA,zip,"http://www.nursing.wsu.edu",1,1,1,0
Wayne State University,Detroit,MI,zip,"http://www.nursing.wayne.edu",1,1,1,0
Waynesburg University,Waynesburg,PA,zip,"http://www.waynesburg.edu",1,1,1,0
Wenatchee Valley College,Wenatchee,WA,zip,"https://www.wvc.edu/",1,0,0,0
Wesleyan College,Macon,GA,zip,"http://www.wesleyancollege.edu/academics/undergraduate/majorsminors/nursing/index.cfm",1,0,0,0
West Chester University,West Chester,PA,zip,"http://www.wcupa.edu",1,1,1,0
West Coast University,Irvine,CA,zip,"http://www.westcoastuniversity.edu",1,1,1,1
West Liberty University,West Liberty,WV,zip,"http://www.westliberty.edu",1,0,0,0
West Texas A & M University,Canyon,TX,zip,"http://www.wtamu.edu",1,1,0,1
West Virginia University,Morgantown,WV,zip,"http://www.hsc.wvu.edu/son/",1,1,1,1
West Virginia Wesleyan College,Buckhannon,WV,zip,"http://www.wvwc.edu/academics/dept/nursing/",1,1,1,0
Western Carolina University - Cullowhee,Cullowhee,NC,zip,"http://www.wcu.edu/",1,1,0,1
Western Carolina University - Cullowhee,Cullowhee,NC,zip,"http://www.wcu.edu/",0,0,0,0
Western Connecticut State University,Danbury,CT,zip,"http://wcsu.ctstateu.edu/nursing",1,1,0,1
Western Governors University,Salt Lake City,UT,zip,"http://www.wgu.edu/index.asp",1,1,0,0
Western Illinois University,Macomb,IL,zip,"http://www.wiu.edu/nursing",1,0,0,0
Western Kentucky University,Bowling Green,KY,zip,"http://www.wku.edu/nursing/index.php",1,1,1,1
Western Michigan University,Kalamazoo,MI,zip,"http://www.wmich.edu/hhs/nursing/index.htm",1,1,0,0
Western New Mexico University,Silver City,NM,zip,"https://sonak.wnmu.edu",1,0,0,0
Western University of Health Sciences,Pomona,CA,zip,"http://www.westernu.edu/",0,1,1,1
Western Washington University,Bellingham,WA,zip,"http://www.wwu.edu/BSN",1,0,0,0
Westfield State University,Westfield,MA,zip,"http://www.westfield.ma.edu/nursing",1,0,0,0
Westminster College - PA,New Wilmington,PA,zip,"http://www.westminster.edu/academics/majors-programs/nursing",1,0,0,0
Westminster College - UT,Salt Lake City,UT,zip,"https://westminstercollege.edu/academics/academic-schools/school-of-nursing-and-health-sciences.html",1,1,1,0
Wheeling University,Wheeling,WV,zip,"http://www.wju.edu/",1,1,0,1
Wichita State University,Wichita,KS,zip,"http://www.wichita.edu/nurs",1,1,1,0
Widener University,Chester,PA,zip,"http://www.widener.edu",1,1,1,1
Wilkes University,Wilkes Barre,PA,zip,"http://www.wilkes.edu",1,1,1,1
William Carey University,Hattiesburg,MS,zip,"http://www.wmcarey.edu",1,1,0,0
William Jewell College,Liberty,MO,zip,"http://www.jewell.edu",1,0,0,0
William Paterson University of New Jersey,Wayne,NJ,zip,"http://www.wpunj.edu/",1,1,1,1
William Peace University,Raleigh,NC,zip,"https://www.peace.edu/online-nursing-program-bsn/",1,0,0,0
William Penn University,Oskaloosa,IA,zip,"http://www.wmpenn.edu/nursing",1,0,0,0
Wilmington University,New Castle,DE,zip,"http://www.wilmu.edu",1,1,1,1
Winona State University,Winona,MN,zip,"http://www.winona.edu/nursing/",1,1,1,1
Winston-Salem State University,Winston-Salem,NC,zip,"http://www.wssu.edu",1,1,1,1
Wisconsin Lutheran College,Milwaukee,WI,zip,"http://www.wlc.edu/academics/nursing/",1,0,0,0
Wittenberg University,Springfield,OH,zip,"http://www.wittenberg.edu/academics/nursing",1,0,0,0
Wm. S. Middleton Memorial Veterans Hospital,Madison,WI,zip,"http://www.madison.va.gov/",0,0,0,0
Worcester State University,Worcester,MA,zip,"http://www.worcester.edu",1,1,0,0
World Mission University,Los Angeles,CA,zip,"http://en.wmu.edu/rn-to-b-s-in-nursingrn-to-bsn/",1,0,0,0
Wright State University,Dayton,OH,zip,"http://www.wright.edu",1,1,0,0
Xavier University,Cincinnati,OH,zip,"http://www.xavier.edu/nursing/",1,1,1,1
Yale University,Orange,CT,zip,"http://www.nursing.yale.edu",0,1,1,1
York College of Pennsylvania,York,PA,zip,"http://www.ycp.edu/academics/academic-departments/nursing/",1,1,0,1
Youngstown State University,Youngstown,OH,zip,"http://nursing.ysu.edu/",1,1,0,1
